{
"type": "FeatureCollection",
"name": "Indeks_Kontur_Tabularasa_Interval_5m",
"crs": { "type": "name", "properties": { "name": "urn:ogc:def:crs:OGC:1.3:CRS84" } },
"features": [
{ "type": "Feature", "properties": { "fid": 1.0, "ID": 0, "ELEV": -5.0 }, "geometry": { "type": "MultiLineString", "coordinates": [ ] } },
{ "type": "Feature", "properties": { "fid": 2.0, "ID": 1, "ELEV": -5.0 }, "geometry": { "type": "MultiLineString", "coordinates": [ ] } },
{ "type": "Feature", "properties": { "fid": 3.0, "ID": 2, "ELEV": -5.0 }, "geometry": { "type": "MultiLineString", "coordinates": [ [ [ 106.618043324752506, -5.750753573295672 ], [ 106.618042577871392, -5.75075551316812 ], [ 106.618040943671389, -5.750758101467627 ], [ 106.618039522115524, -5.75076714834089 ], [ 106.618038105106763, -5.750770166655146 ], [ 106.618035659885621, -5.750776202133498 ], [ 106.618030839090196, -5.750785258643647 ], [ 106.618029126234816, -5.750787674920612 ], [ 106.618024630877144, -5.750794319087124 ], [ 106.618020130752356, -5.750799305407647 ], [ 106.618016079525916, -5.750803386173353 ], [ 106.618011125686806, -5.75080754485464 ], [ 106.618005271151517, -5.750812459658133 ], [ 106.618002117876316, -5.75081481304434 ], [ 106.617993929280104, -5.75082153465524 ], [ 106.617993110493288, -5.75082223257979 ], [ 106.617984466943071, -5.750830604323847 ], [ 106.617984106750157, -5.750830940272192 ], [ 106.617975102014753, -5.750839296922857 ], [ 106.617974651655928, -5.750839674992968 ], [ 106.617966089514184, -5.750844905754375 ], [ 106.617957072141436, -5.750848767672903 ], [ 106.617957072077019, -5.750848767694613 ], [ 106.617948049040507, -5.750850648193596 ], [ 106.617939025587035, -5.750852381169171 ], [ 106.617930006170525, -5.750855542798487 ], [ 106.617926501795552, -5.750857897179742 ], [ 106.617920996228676, -5.750862057424623 ], [ 106.617915907125635, -5.75086697005767 ], [ 106.617911992901043, -5.750870912820958 ], [ 106.617907117026974, -5.75087603781984 ], [ 106.617902988132187, -5.750879258280023 ], [ 106.617893972931796, -5.750883912214153 ], [ 106.617889963780982, -5.750885129289905 ], [ 106.617884952181157, -5.750886602023582 ], [ 106.617875930190948, -5.750888853198519 ], [ 106.617866908536413, -5.750891223202309 ], [ 106.61785788593545, -5.750893258306923 ], [ 106.617848860946637, -5.750894288650914 ], [ 106.617848860495371, -5.750894288691506 ], [ 106.617848859592641, -5.750894288654751 ], [ 106.617839830390793, -5.750893668319473 ], [ 106.617830797548677, -5.750892079135644 ], [ 106.617821750106074, -5.750885322740547 ], [ 106.617817235966328, -5.750885335498245 ] ] ] } },
{ "type": "Feature", "properties": { "fid": 4.0, "ID": 3, "ELEV": -5.0 }, "geometry": { "type": "MultiLineString", "coordinates": [ ] } },
{ "type": "Feature", "properties": { "fid": 5.0, "ID": 4, "ELEV": -5.0 }, "geometry": { "type": "MultiLineString", "coordinates": [ [ [ 106.617445900442547, -5.751180280434849 ], [ 106.617445867618912, -5.751184801950693 ], [ 106.617443414938478, -5.751188199970471 ], [ 106.617434399613842, -5.751192813435864 ], [ 106.617429885470898, -5.751192826229633 ] ] ] } },
{ "type": "Feature", "properties": { "fid": 6.0, "ID": 5, "ELEV": -10.0 }, "geometry": { "type": "MultiLineString", "coordinates": [ [ [ 106.618133028779511, -5.750814755317519 ], [ 106.61813017313878, -5.750816626972153 ], [ 106.618128528611507, -5.750819711447089 ], [ 106.618126849450519, -5.750821157816814 ], [ 106.618120292922754, -5.750830219248546 ], [ 106.618119535643558, -5.750832230926829 ], [ 106.618116638689997, -5.750839272451736 ], [ 106.618112874357166, -5.750848325967084 ], [ 106.618110564904086, -5.750852615972624 ], [ 106.618107465157863, -5.750857384145921 ], [ 106.618101565250541, -5.750862770059825 ], [ 106.618095986694783, -5.750866459532106 ], [ 106.618092552665004, -5.750868348299822 ], [ 106.6180835361139, -5.750872523393269 ], [ 106.618077353808971, -5.750875555201914 ], [ 106.618074520153144, -5.750876907438291 ], [ 106.618065505768413, -5.750881849223313 ], [ 106.618060999515009, -5.750884644411236 ], [ 106.618056493732027, -5.750887622050995 ], [ 106.618047482652017, -5.750893725575875 ], [ 106.618047482630033, -5.750893725588149 ], [ 106.618038464644471, -5.750897393397048 ], [ 106.618029443850261, -5.750900067388464 ], [ 106.618020423392124, -5.750902845133747 ], [ 106.618020423349165, -5.750902845147362 ], [ 106.618011405962477, -5.750906725024629 ], [ 106.618002390613498, -5.750911326027048 ], [ 106.618001227409465, -5.750911942398129 ], [ 106.61799337519551, -5.750915902672962 ], [ 106.617984358869165, -5.750920157944948 ], [ 106.617982613923431, -5.75092103801066 ], [ 106.617975343890947, -5.75092489033336 ], [ 106.617966588294081, -5.750930126286279 ], [ 106.617966330802247, -5.750930291435294 ], [ 106.617957320310879, -5.750936611734481 ], [ 106.617953526235851, -5.750939206160037 ], [ 106.617948308399818, -5.750942429707685 ], [ 106.617939294930622, -5.750947696375222 ], [ 106.617938234457185, -5.750948292354694 ], [ 106.617930281103185, -5.750952836338628 ], [ 106.617922327748971, -5.750957380292336 ], [ 106.6179212672223, -5.75095795744696 ], [ 106.617912252651735, -5.750962834560296 ], [ 106.617904927403742, -5.750966472463939 ], [ 106.617903236988411, -5.750967325028117 ], [ 106.617894219089052, -5.750971024256089 ], [ 106.617885198324174, -5.750973709471084 ], [ 106.617877768515669, -5.750975592299041 ], [ 106.617876176466069, -5.750976007847023 ], [ 106.617867155279541, -5.750978543922059 ], [ 106.617858136310815, -5.750981864907797 ], [ 106.617851695523981, -5.750984709054805 ], [ 106.617849119479914, -5.75098594250418 ], [ 106.617840105924074, -5.750991179186987 ], [ 106.61783627626177, -5.750993795608889 ], [ 106.617831095690974, -5.750997591845231 ], [ 106.617825091703523, -5.751002870158384 ], [ 106.617822090138603, -5.75100566108061 ], [ 106.617815857479769, -5.751011939179073 ], [ 106.617813087563277, -5.751014783997764 ], [ 106.61780702836964, -5.751021007051304 ], [ 106.617804085170775, -5.751023971707607 ], [ 106.6177983570946, -5.751030074476057 ], [ 106.617795083914885, -5.751033561771552 ], [ 106.617790031131946, -5.751039140921892 ], [ 106.617786082370642, -5.751043049893623 ], [ 106.617779757907087, -5.751048212887569 ], [ 106.617777073965613, -5.751050110049666 ], [ 106.617768061319339, -5.751055669275748 ], [ 106.617765546379246, -5.751057296016955 ], [ 106.617759049989743, -5.751061694563319 ], [ 106.617752856215887, -5.751066374833572 ], [ 106.617750040778489, -5.7510684696205 ], [ 106.617741029144526, -5.751074387340915 ], [ 106.617739025865475, -5.751075456882027 ], [ 106.617732014236282, -5.751079146316169 ], [ 106.617723000349599, -5.75108426690521 ], [ 106.617722599870248, -5.751084546287911 ], [ 106.61771399179554, -5.751091274871812 ], [ 106.617711343029029, -5.751093621041036 ], [ 106.617704987475364, -5.751099781363142 ], [ 106.617702205110234, -5.751102689787782 ], [ 106.617695987202097, -5.751109720236525 ], [ 106.617694187284314, -5.751111755359473 ], [ 106.617686987138612, -5.751119733464415 ], [ 106.617685786427131, -5.751120822016846 ], [ 106.617677980373927, -5.751127375093093 ], [ 106.617674118210203, -5.751129897935658 ], [ 106.617668968152287, -5.751133085460341 ], [ 106.617659954660439, -5.751138346342094 ], [ 106.617658924651636, -5.751138983847008 ], [ 106.617650941593851, -5.75114375780552 ], [ 106.617644121508491, -5.75114806865145 ], [ 106.617641929204581, -5.751149409056671 ], [ 106.617632916312871, -5.751154882549696 ], [ 106.617628818944084, -5.751157154871237 ], [ 106.617623901954985, -5.751159837190627 ], [ 106.617614886394577, -5.751164366275608 ], [ 106.617611022415772, -5.751166248159776 ], [ 106.617605870828442, -5.751168893404064 ], [ 106.617596855928994, -5.751173656551378 ], [ 106.617593388232876, -5.751175340987755 ], [ 106.617587840088333, -5.75117808662779 ], [ 106.617578824065035, -5.751182452131882 ], [ 106.617574817064622, -5.751184436471134 ], [ 106.617569808451066, -5.751186962562719 ], [ 106.617560792790755, -5.751191456660283 ], [ 106.617555695680267, -5.751193533513585 ], [ 106.617551774145511, -5.751194894312021 ], [ 106.617542755186051, -5.751198220794509 ], [ 106.617533738590012, -5.751202383859054 ], [ 106.617533309381571, -5.751202639809432 ], [ 106.617524725417368, -5.751207758694783 ], [ 106.617519248785669, -5.751211722506993 ], [ 106.617515716270134, -5.751214558408405 ], [ 106.61750911309133, -5.751220794079993 ], [ 106.6175067129805, -5.751223431525128 ], [ 106.617500958914022, -5.751229860036704 ], [ 106.617497714051154, -5.751233848090383 ], [ 106.617493293412096, -5.751238924608327 ], [ 106.617488714050481, -5.751243885561379 ], [ 106.617484637340397, -5.751247991987454 ], [ 106.617479708730869, -5.751252040458565 ], [ 106.617472951665263, -5.7512570679532 ], [ 106.617470698736426, -5.751258540745009 ], [ 106.617461684919917, -5.75126368824956 ], [ 106.617456926930956, -5.751266156216724 ], [ 106.617452669771581, -5.751268364403711 ], [ 106.617443653582697, -5.751272672295181 ], [ 106.617438300288612, -5.751275251854279 ], [ 106.617434637649623, -5.751277070804054 ], [ 106.61742562168979, -5.751281459892147 ], [ 106.617419181023195, -5.751284348887566 ], [ 106.617416604705852, -5.751285486543325 ], [ 106.61740758599845, -5.751288903186785 ], [ 106.617398567732963, -5.751292476313404 ], [ 106.617396391251489, -5.751293456323113 ], [ 106.617389550842944, -5.75129653636627 ], [ 106.617380533559739, -5.751300457305171 ], [ 106.617375523743078, -5.751302558310054 ], [ 106.617371516111561, -5.751304319894989 ], [ 106.617362501254419, -5.75130909972132 ], [ 106.617358804509905, -5.751311648539876 ], [ 106.617353491223056, -5.751315587846229 ], [ 106.617347206877696, -5.751320724254422 ], [ 106.617344483660673, -5.75132295003183 ], [ 106.617335474674618, -5.751329800350211 ], [ 106.61733547465208, -5.751329800366715 ], [ 106.617326463233212, -5.751335797578618 ], [ 106.617321828786373, -5.751338881869306 ], [ 106.617317451662458, -5.751341741097614 ], [ 106.617308440376036, -5.751347785343805 ], [ 106.617308167286112, -5.751347963432436 ], [ 106.617299428011535, -5.751353448028787 ], [ 106.617294021164696, -5.751357046368768 ], [ 106.617290416230404, -5.751359317300529 ], [ 106.617281403726096, -5.751364930639034 ], [ 106.617278976410489, -5.751366131851569 ], [ 106.617272387178744, -5.751369112830778 ], [ 106.617263367551061, -5.751372204645294 ], [ 106.617254346689421, -5.751374859686734 ], [ 106.617253057994432, -5.751375248149371 ], [ 106.617245326785266, -5.751377853726488 ], [ 106.617236311153761, -5.751382360339017 ], [ 106.617232990536692, -5.751384347865246 ], [ 106.61722729720978, -5.751387464406146 ], [ 106.617218282056825, -5.751392140558705 ], [ 106.617215276275985, -5.751393440911936 ], [ 106.617209264714234, -5.751396041618344 ], [ 106.617200249560952, -5.751400717772818 ], [ 106.617196643370846, -5.751402536561523 ], [ 106.617191233043073, -5.751404910908406 ], [ 106.617182209699934, -5.751406687859636 ], [ 106.617173189447612, -5.751409559048956 ], [ 106.617171028537413, -5.751411651996102 ], [ 106.617164180918152, -5.751416580372013 ], [ 106.61715791203855, -5.751420732012331 ], [ 106.617155168561595, -5.751422246921036 ], [ 106.617146147440849, -5.751424810835253 ], [ 106.61713712008239, -5.75142516649934 ], [ 106.617128090379012, -5.751424692025491 ], [ 106.617119059655465, -5.75142385639255 ], [ 106.617110023701812, -5.751421169150388 ], [ 106.617109778836848, -5.751420868409325 ], [ 106.617105496624063, -5.751416603527215 ], [ 106.617105373926947, -5.751416359467964 ] ] ] } },
{ "type": "Feature", "properties": { "fid": 7.0, "ID": 6, "ELEV": -40.0 }, "geometry": { "type": "MultiLineString", "coordinates": [ [ [ 106.618983775920341, -5.751551197595917 ], [ 106.618979261778051, -5.751551210402734 ], [ 106.61897926167768, -5.751551210379825 ], [ 106.618970218150054, -5.751545810379291 ], [ 106.618961182477321, -5.751543223421605 ], [ 106.618952156465539, -5.751544052730642 ], [ 106.618943143525669, -5.751549504555482 ], [ 106.618938634948364, -5.751551325638007 ], [ 106.618934126746879, -5.751553598921742 ], [ 106.618925111249112, -5.751558146349028 ], [ 106.61892331225998, -5.751560411946805 ], [ 106.618925143210674, -5.75156944868726 ], [ 106.618925143438929, -5.75156944959086 ], [ 106.618930585618443, -5.751578476990614 ], [ 106.618934209855666, -5.751582987902186 ], [ 106.618943250927344, -5.751587483785297 ], [ 106.618943250977807, -5.751587483898192 ], [ 106.618944617982393, -5.751592001439467 ], [ 106.618947784741195, -5.751594427035229 ] ] ] } },
{ "type": "Feature", "properties": { "fid": 8.0, "ID": 7, "ELEV": -15.0 }, "geometry": { "type": "MultiLineString", "coordinates": [ [ [ 106.618182551958725, -5.750843606993151 ], [ 106.61818238648155, -5.750848128883574 ], [ 106.618180388561143, -5.750857177390773 ], [ 106.618173797730975, -5.750864780393666 ], [ 106.618172297135359, -5.750866243174875 ], [ 106.618164794185859, -5.750873557064191 ], [ 106.618162494043659, -5.750875313811983 ], [ 106.618155783818182, -5.750879919787897 ], [ 106.618148122382678, -5.750884397402096 ], [ 106.618146770422129, -5.750885211047627 ], [ 106.61813776052621, -5.750891740843726 ], [ 106.618135776129151, -5.750893475249457 ], [ 106.618128753237883, -5.75089919338726 ], [ 106.61812424856781, -5.750902550775481 ], [ 106.618119743146366, -5.750905654142825 ], [ 106.618110729560073, -5.750910878380734 ], [ 106.618109357827393, -5.750911635836678 ], [ 106.618101716525516, -5.750916297910152 ], [ 106.618094621605167, -5.750920720459526 ], [ 106.618092704446809, -5.750922055729317 ], [ 106.618083693646312, -5.750928265918803 ], [ 106.618081342764853, -5.750929800950208 ], [ 106.618074682655219, -5.750934408739581 ], [ 106.618068356242944, -5.750938880611931 ], [ 106.618065672642274, -5.750940897745545 ], [ 106.618057185097626, -5.750947955126646 ], [ 106.618056665383776, -5.750948361499864 ], [ 106.618047655396609, -5.750954859798928 ], [ 106.618044007210926, -5.750957035330575 ], [ 106.618038641027226, -5.750959807509655 ], [ 106.618029624661617, -5.750964048905603 ], [ 106.618025546290284, -5.750966130512174 ], [ 106.618020610174597, -5.750968955115141 ], [ 106.618011773131485, -5.750975212403256 ], [ 106.6180115999191, -5.750975358749999 ], [ 106.618002592247763, -5.750982676904108 ], [ 106.618000174566816, -5.750984288129052 ], [ 106.617993579943899, -5.750988355861498 ], [ 106.617984564631641, -5.750992970327281 ], [ 106.6179837193813, -5.750993377623362 ], [ 106.617975548235762, -5.750997201405815 ], [ 106.61796653286234, -5.751001794349107 ], [ 106.617965207076594, -5.751002472949265 ], [ 106.617957517386898, -5.751006351253965 ], [ 106.617948503785342, -5.751011563146232 ], [ 106.617948503762236, -5.75101156315979 ], [ 106.617939491118833, -5.751017122374458 ], [ 106.617933775776763, -5.751020647743037 ], [ 106.617930478309461, -5.751022622922925 ], [ 106.617921463548541, -5.751027432935359 ], [ 106.617916053052497, -5.751029740829376 ], [ 106.617912446322507, -5.751031370666223 ], [ 106.617903427838314, -5.751034863220291 ], [ 106.617894409912225, -5.751038553318364 ], [ 106.617893716238058, -5.751038846995764 ], [ 106.617885393214294, -5.751042678102099 ], [ 106.617876377083178, -5.751047003522089 ], [ 106.617874511792948, -5.751047944281656 ], [ 106.617867361240187, -5.751051430972282 ], [ 106.617858346202567, -5.751056143487055 ], [ 106.617856923188228, -5.751057036986438 ], [ 106.617849334293098, -5.751061963086968 ], [ 106.61784367705981, -5.751066117380741 ], [ 106.617840324753573, -5.751068621459479 ], [ 106.617832604724441, -5.751075191612591 ], [ 106.617831318058748, -5.751076286633128 ], [ 106.617823118343921, -5.751084261348481 ], [ 106.617822314447594, -5.751085043185952 ], [ 106.617813793168622, -5.751093330627316 ], [ 106.617813310771126, -5.751093776721125 ], [ 106.617804304270521, -5.751101510904794 ], [ 106.617803178241786, -5.751102403562214 ], [ 106.617795296387371, -5.751108755893329 ], [ 106.617791771240874, -5.751111478742331 ], [ 106.617786286948856, -5.751115450533185 ], [ 106.617778175866903, -5.751120560125756 ], [ 106.617777274498692, -5.75112107941449 ], [ 106.617768258567011, -5.751125476259238 ], [ 106.617759241673511, -5.751129532765604 ], [ 106.617759021816383, -5.751129657266155 ], [ 106.617750230495048, -5.751135611918454 ], [ 106.617747181323267, -5.751138733674539 ], [ 106.617741232387374, -5.751146317000143 ], [ 106.617740204755847, -5.751147796295172 ], [ 106.617733886893745, -5.751156857048568 ], [ 106.61773223986566, -5.751158999118063 ], [ 106.617726599855672, -5.751165920549231 ], [ 106.617723241232625, -5.751169518499433 ], [ 106.61771753873289, -5.751174989078762 ], [ 106.617714235756381, -5.751177616109411 ], [ 106.617705223241771, -5.751183222838024 ], [ 106.617703605169709, -5.751184071419785 ], [ 106.617696208100156, -5.751187899901131 ], [ 106.617687193188473, -5.751192658406334 ], [ 106.617686244263382, -5.751193163475741 ], [ 106.61767817806259, -5.751197341163765 ], [ 106.617669162566699, -5.751201893029316 ], [ 106.617668533713015, -5.751202256522408 ], [ 106.617660148078841, -5.751206801725671 ], [ 106.617652310179324, -5.751211345353661 ], [ 106.617651134559694, -5.751212053327775 ], [ 106.617642120511235, -5.751217117662734 ], [ 106.617635879477021, -5.751220434771818 ], [ 106.617633106338729, -5.751222138163207 ], [ 106.617624095568019, -5.751228362721837 ], [ 106.61762252867743, -5.751229515459655 ], [ 106.617615085017647, -5.751234665337338 ], [ 106.617608710214213, -5.751238597472879 ], [ 106.617606072366655, -5.751240224562103 ], [ 106.617597057602268, -5.751245035850905 ], [ 106.617590527327764, -5.751247691856674 ], [ 106.617588039606957, -5.751248703667237 ], [ 106.617579018436288, -5.751251247664537 ], [ 106.617569995590884, -5.751253198944745 ], [ 106.617560974733479, -5.751255853897344 ], [ 106.617558853159011, -5.751256824479975 ], [ 106.617551959237034, -5.751260406357005 ], [ 106.617544604694899, -5.7512659077109 ], [ 106.617542950399042, -5.751267315602496 ], [ 106.617534779652274, -5.751274978403988 ], [ 106.617533946062153, -5.751275818070432 ], [ 106.617525121528089, -5.751284048623881 ], [ 106.617524941440266, -5.751284219757729 ], [ 106.617515933814701, -5.75129155839297 ], [ 106.617513623267399, -5.751293124059277 ], [ 106.617506921882452, -5.751297372771472 ], [ 106.617498659544708, -5.751302209316786 ], [ 106.617497908390973, -5.751302635325807 ], [ 106.617488895020955, -5.751307940942378 ], [ 106.617483619605892, -5.751311294790052 ], [ 106.617479883171583, -5.751313784871674 ], [ 106.617470873446749, -5.751320373761835 ], [ 106.617470873426726, -5.751320373776244 ], [ 106.617461864603797, -5.751327289085038 ], [ 106.617458989321193, -5.751329450290213 ], [ 106.617452854246764, -5.751333661460606 ], [ 106.617444720466139, -5.751338533577358 ], [ 106.617443840985189, -5.751339005828084 ], [ 106.617434823816012, -5.751342967118543 ], [ 106.617425805681094, -5.751346586624464 ], [ 106.617423100139476, -5.751347637699946 ], [ 106.617416787131461, -5.7513500593873 ], [ 106.617407769410846, -5.751353825647038 ], [ 106.617401837937209, -5.751356740806914 ], [ 106.617398753922984, -5.751358382284428 ], [ 106.617389742697654, -5.75136444780097 ], [ 106.617388134368994, -5.751365822490947 ], [ 106.617380737865219, -5.751372776298434 ], [ 106.617378403152671, -5.751374892916556 ], [ 106.61737173150361, -5.751380563603641 ], [ 106.61736618520986, -5.751383970389796 ], [ 106.617362718347877, -5.751385946047591 ], [ 106.617353702537713, -5.751390388952575 ], [ 106.617348694334979, -5.751393062806935 ], [ 106.617344688148421, -5.751395334872373 ], [ 106.617335677396426, -5.751401568395894 ], [ 106.617334876504188, -5.751402144813989 ], [ 106.617326666361279, -5.751407701761401 ], [ 106.617320657414737, -5.751411227958019 ], [ 106.617317652354458, -5.751412783278074 ], [ 106.617308636299583, -5.751417139880278 ], [ 106.617302163387322, -5.751420323217158 ], [ 106.617299620553069, -5.751421605693271 ], [ 106.617290604253043, -5.751425875635282 ], [ 106.617282648065824, -5.751429421370212 ], [ 106.617281587334702, -5.751429926756007 ], [ 106.617272571857484, -5.751434488082329 ], [ 106.617265756906008, -5.75143851208595 ], [ 106.617263558529132, -5.751439810154824 ], [ 106.617254546295356, -5.75144551976797 ], [ 106.617250750753399, -5.751447597459306 ], [ 106.617245531541897, -5.751450337493164 ], [ 106.617236514448749, -5.751454327036843 ], [ 106.617231160556329, -5.75145669582327 ], [ 106.617227497483583, -5.751458361937971 ], [ 106.617218481429958, -5.751462719584747 ], [ 106.617210966488628, -5.751465795898038 ], [ 106.617209463307475, -5.751466344909827 ], [ 106.61720044238821, -5.751468980203313 ], [ 106.617191420761827, -5.751471365221233 ], [ 106.617182401111833, -5.751474449937258 ], [ 106.617181273902361, -5.751474922889719 ], [ 106.617173384984056, -5.751478781602134 ], [ 106.617165032000514, -5.751484011763379 ], [ 106.617164372698255, -5.751484473433284 ], [ 106.617155363366379, -5.751491211077055 ], [ 106.617152359220626, -5.751493090522522 ], [ 106.617146349244038, -5.751496252890559 ], [ 106.617137330473639, -5.751499649283158 ], [ 106.617130740008847, -5.751502194633731 ], [ 106.617128312156751, -5.751503206269925 ], [ 106.617119297357277, -5.751508008551144 ], [ 106.617113287699269, -5.751511286936373 ], [ 106.617110282074108, -5.751512639656756 ], [ 106.617101264211172, -5.751516357525635 ], [ 106.617092246619563, -5.751520171503508 ], [ 106.617091745652615, -5.751520390827795 ], [ 106.617083229405694, -5.751524119261172 ], [ 106.617074212360876, -5.751528126933581 ], [ 106.617071365155994, -5.751529491427126 ], [ 106.61706519712304, -5.751532774379609 ], [ 106.617056184386257, -5.751538307349786 ], [ 106.617055744734969, -5.751538578537488 ], [ 106.617047171948698, -5.751543946328679 ], [ 106.617040594187529, -5.751547664316106 ], [ 106.617038157556138, -5.751548893230493 ], [ 106.617029139055134, -5.75155238565793 ], [ 106.617020116674183, -5.751554504474714 ], [ 106.617011092093193, -5.75155584441561 ], [ 106.617003708008994, -5.751556811684478 ], [ 106.617002067223851, -5.751557082305832 ], [ 106.616993044564367, -5.75155910261196 ], [ 106.616984024074966, -5.75156189126887 ], [ 106.616975005105729, -5.751565218174352 ], [ 106.616973394929772, -5.751565940425754 ], [ 106.61696598862963, -5.751569427833008 ], [ 106.616956972736233, -5.751573843859192 ], [ 106.616954568544585, -5.75157503661824 ], [ 106.616947957003163, -5.751578316707614 ], [ 106.616938940648424, -5.751582569511342 ], [ 106.616935398215986, -5.751584133784823 ], [ 106.616929922691682, -5.751586255167716 ], [ 106.616920903433197, -5.751589479987526 ], [ 106.616911883506177, -5.751592468154652 ], [ 106.61690953047669, -5.751593249927619 ], [ 106.616902863603372, -5.751595464939494 ], [ 106.616893843111967, -5.751598253360728 ], [ 106.616884821707728, -5.751600718625762 ], [ 106.616878377560553, -5.751602381044406 ], [ 106.616875799704246, -5.751602971757542 ], [ 106.616866776146537, -5.751604674627525 ], [ 106.616857755580639, -5.75160743683677 ], [ 106.616850790601646, -5.751611502056218 ], [ 106.616848743114389, -5.751613066975343 ], [ 106.616841025711494, -5.751620572571522 ], [ 106.616839739360245, -5.751621781927335 ], [ 106.616830729112479, -5.751628197738904 ], [ 106.61682745017508, -5.751629653883476 ], [ 106.616821710862311, -5.75163178013876 ], [ 106.616812685120649, -5.751632709999948 ], [ 106.616803651504483, -5.751630851658925 ], [ 106.616801842664543, -5.751629726436779 ], [ 106.616799126146489, -5.751626895096788 ], [ 106.616798300641008, -5.751625215048065 ] ] ] } },
{ "type": "Feature", "properties": { "fid": 9.0, "ID": 8, "ELEV": -40.0 }, "geometry": { "type": "MultiLineString", "coordinates": [ [ [ 106.618916332017875, -5.751646338720224 ], [ 106.618916319051351, -5.751641817337497 ], [ 106.618916319502077, -5.751641817110159 ], [ 106.618925339266042, -5.75163877785096 ], [ 106.618929853409142, -5.751638765044375 ] ] ] } },
{ "type": "Feature", "properties": { "fid": 10.0, "ID": 9, "ELEV": -40.0 }, "geometry": { "type": "MultiLineString", "coordinates": [ [ [ 106.618904646660127, -5.751664457549333 ], [ 106.618902828217813, -5.751659941627721 ], [ 106.618902827991164, -5.751659941289286 ], [ 106.618907332131002, -5.751656311237599 ], [ 106.618911846274287, -5.751656298431118 ] ] ] } },
{ "type": "Feature", "properties": { "fid": 11.0, "ID": 10, "ELEV": -40.0 }, "geometry": { "type": "MultiLineString", "coordinates": [ [ [ 106.618887468834885, -5.751682591960235 ], [ 106.618885575167866, -5.75167807591288 ], [ 106.618889315619896, -5.751670529410505 ], [ 106.618898365216538, -5.751678039402118 ], [ 106.618902879360007, -5.75167802659566 ] ] ] } },
{ "type": "Feature", "properties": { "fid": 12.0, "ID": 11, "ELEV": -40.0 }, "geometry": { "type": "MultiLineString", "coordinates": [ [ [ 106.618842478326869, -5.751764105147922 ], [ 106.618840747429715, -5.751759588638643 ], [ 106.618835764244963, -5.751750559936055 ], [ 106.618835363253126, -5.751747547177142 ], [ 106.618834142417526, -5.751741521697629 ], [ 106.618835335975746, -5.751737901037918 ], [ 106.618839834627039, -5.75173246271016 ], [ 106.618844344127112, -5.75173075445222 ], [ 106.618853366680113, -5.751728700775226 ], [ 106.618862382250398, -5.751724177867757 ], [ 106.618863074307825, -5.75172335394219 ], [ 106.61887138460898, -5.751714983028223 ], [ 106.618871775111359, -5.751714286419443 ], [ 106.618880396125121, -5.751709026619885 ], [ 106.618884910268875, -5.7517090138135 ] ] ] } },
{ "type": "Feature", "properties": { "fid": 13.0, "ID": 12, "ELEV": -20.0 }, "geometry": { "type": "MultiLineString", "coordinates": [ [ [ 106.618241567348463, -5.750884946314599 ], [ 106.618237058576923, -5.750886858099435 ], [ 106.618232215079573, -5.750893201813689 ], [ 106.618228058951033, -5.750897021108949 ], [ 106.618222452375761, -5.750902272337167 ], [ 106.618219054597674, -5.750905511562154 ], [ 106.618212155757135, -5.750911344374417 ], [ 106.618210046824089, -5.750912791973478 ], [ 106.618201034552555, -5.750918480999399 ], [ 106.618198331552591, -5.750920426413566 ], [ 106.618192025304154, -5.75092523974712 ], [ 106.618187039515249, -5.750929501272931 ], [ 106.618183019013301, -5.750933045036144 ], [ 106.618175032237019, -5.750938578160114 ], [ 106.618174008215945, -5.750939255892179 ], [ 106.618164991364253, -5.75094332463838 ], [ 106.618155973429253, -5.750947010134091 ], [ 106.618154817852627, -5.750947678316816 ], [ 106.618146963424508, -5.750953501650356 ], [ 106.618143609101963, -5.75095675293951 ], [ 106.618137958407615, -5.750961758111284 ], [ 106.618133455741869, -5.750965824569763 ], [ 106.618128950943643, -5.750969148803881 ], [ 106.618119938507178, -5.750974780139336 ], [ 106.618119688071275, -5.750974906447414 ], [ 106.618110922835797, -5.750979266915992 ], [ 106.618102359284251, -5.750983998421432 ], [ 106.618101908683926, -5.750984291409867 ], [ 106.618092900804413, -5.750991535390454 ], [ 106.618091134879066, -5.750993073087899 ], [ 106.618083895238541, -5.750999598115837 ], [ 106.618080692365552, -5.751002145537423 ], [ 106.618074887607094, -5.75100693004461 ], [ 106.618069905308602, -5.751011218963688 ], [ 106.618065882588482, -5.751015186599139 ], [ 106.618060597758074, -5.751020288195194 ], [ 106.618056878020965, -5.75102360286335 ], [ 106.618047864994068, -5.751029025890912 ], [ 106.61804691559405, -5.751029369829331 ], [ 106.618038844260354, -5.751031721931462 ], [ 106.61802982355097, -5.751034426628207 ], [ 106.618020804383292, -5.751037676901549 ], [ 106.618018872048964, -5.751038492179478 ], [ 106.618011786658741, -5.751041437890759 ], [ 106.618002769943757, -5.751045556161889 ], [ 106.617999013877224, -5.751047591322397 ], [ 106.617993756328076, -5.751050771217317 ], [ 106.617984970369889, -5.751056673979931 ], [ 106.617984745098084, -5.751056830533266 ], [ 106.617975735321835, -5.751063404344323 ], [ 106.617972797927564, -5.751065751332701 ], [ 106.617966729182342, -5.751071265156149 ], [ 106.617963198689225, -5.751074821390222 ], [ 106.617957728143509, -5.75108093099109 ], [ 106.617954433453676, -5.751083889083251 ], [ 106.617948720274768, -5.751088180073756 ], [ 106.617939702953336, -5.751092084233755 ], [ 106.617936996990849, -5.751092981359123 ], [ 106.617930682688694, -5.751094946942097 ], [ 106.617921663055597, -5.75109803317132 ], [ 106.617912644625548, -5.751101545178686 ], [ 106.617911400869389, -5.751102096766882 ], [ 106.617903627720295, -5.751105596822127 ], [ 106.617894612065697, -5.751110091104241 ], [ 106.617892490864293, -5.751111193219153 ], [ 106.61788559665095, -5.751114670323043 ], [ 106.617876581188497, -5.751119232721509 ], [ 106.617874632096346, -5.751120286690816 ], [ 106.617867567269059, -5.751124341221605 ], [ 106.617859654132332, -5.751129371995374 ], [ 106.617858555267986, -5.751130128671253 ], [ 106.617849545297886, -5.751136634916127 ], [ 106.617847426092666, -5.751138449504039 ], [ 106.617840540244558, -5.751144881221635 ], [ 106.617838057119229, -5.751147518907555 ], [ 106.617831539269005, -5.751154570697021 ], [ 106.617829610306444, -5.751156585696826 ], [ 106.617822535720052, -5.751163349574345 ], [ 106.61781939282541, -5.751165657505572 ], [ 106.617813524773197, -5.751169510508759 ], [ 106.617804509719974, -5.751174218305892 ], [ 106.617803221420104, -5.751174746192402 ], [ 106.617795491678123, -5.751177868510373 ], [ 106.617786474548979, -5.751181841771159 ], [ 106.617782718396413, -5.751183847158038 ], [ 106.61777746041858, -5.751186876335402 ], [ 106.617769409611455, -5.751192927729339 ], [ 106.617768451229523, -5.751193659697861 ], [ 106.617759442951936, -5.751200765708925 ], [ 106.617757853207593, -5.751202003332923 ], [ 106.61775043393358, -5.75120760964918 ], [ 106.617746014735289, -5.751211079735954 ], [ 106.61774142603231, -5.751214849010566 ], [ 106.61773552589915, -5.751220152313033 ], [ 106.617732420547142, -5.751222943533486 ], [ 106.617725310651025, -5.751229224114472 ], [ 106.617723414210047, -5.751230736638993 ], [ 106.617714404191688, -5.751237227010526 ], [ 106.617712640814659, -5.751238302873762 ], [ 106.617705390899118, -5.751242558685775 ], [ 106.617696375558907, -5.75124716574865 ], [ 106.617695935783289, -5.751247393071222 ], [ 106.617687361378088, -5.751252183194012 ], [ 106.617680504122447, -5.751256479658821 ], [ 106.617678349310438, -5.751257948587441 ], [ 106.617669339957928, -5.751264674987039 ], [ 106.617668193390855, -5.75126555739955 ], [ 106.617660329879413, -5.751271144520314 ], [ 106.617654922748613, -5.75127463786107 ], [ 106.617651318233825, -5.751277059512812 ], [ 106.61764230480334, -5.751282342867594 ], [ 106.617639666251975, -5.751283723951422 ], [ 106.617633290147452, -5.751287192593893 ], [ 106.617624273403294, -5.751291303294033 ], [ 106.617620447495227, -5.751292821272661 ], [ 106.617615255847653, -5.751295126848993 ], [ 106.617606237897391, -5.751298810788303 ], [ 106.617598674506866, -5.751301925833388 ], [ 106.617597220347307, -5.751302636417352 ], [ 106.617588204835215, -5.751307183405562 ], [ 106.617580828819371, -5.751311019261669 ], [ 106.617579189760107, -5.751311885124347 ], [ 106.617570174911279, -5.751316666983919 ], [ 106.617563914955724, -5.751320110048342 ], [ 106.617561160693029, -5.751321672099616 ], [ 106.617552151598176, -5.751328490642665 ], [ 106.61755141354962, -5.751329188327885 ], [ 106.617543148352425, -5.751337379492318 ], [ 106.617542342328804, -5.751338256884698 ], [ 106.617534147274924, -5.751347035877501 ], [ 106.617533870286024, -5.751347323743131 ], [ 106.617525143468313, -5.751355726417132 ], [ 106.617524339261266, -5.751356393603082 ], [ 106.617516133552215, -5.75136225464328 ], [ 106.617510123734945, -5.751365476740599 ], [ 106.617507118527172, -5.751366974664478 ], [ 106.617498100629959, -5.751370678152772 ], [ 106.617489083315917, -5.751374579221997 ], [ 106.617489083290863, -5.75137457923428 ], [ 106.617480067951391, -5.751379188135847 ], [ 106.617471746759108, -5.751383671204905 ], [ 106.617471053326298, -5.751384049963517 ], [ 106.617462037437463, -5.751388464542084 ], [ 106.617453020886785, -5.751392644921697 ], [ 106.617452747641195, -5.75139276789961 ], [ 106.617444004457496, -5.751396868330308 ], [ 106.61743498946106, -5.751401598959442 ], [ 106.617434538776365, -5.751401862354066 ], [ 106.617425977827182, -5.75140751986559 ], [ 106.617421569363103, -5.75141094195826 ], [ 106.617416970318359, -5.751414900963778 ], [ 106.617411801810206, -5.751420012487479 ], [ 106.617407967514737, -5.751423947609758 ], [ 106.617403467845591, -5.751429078953516 ], [ 106.617398967878501, -5.751434115507034 ], [ 106.617395306712524, -5.751438144929661 ], [ 106.617389964698972, -5.751443029302838 ], [ 106.617384088477849, -5.751447219570179 ], [ 106.617380953956825, -5.751449266279106 ], [ 106.617371937962702, -5.75145364429297 ], [ 106.617364589055157, -5.751456317680864 ], [ 106.617362919226252, -5.751457051665319 ], [ 106.617353901446208, -5.751460797623809 ], [ 106.617344884895545, -5.751464978804818 ], [ 106.617343952152154, -5.751465419014819 ], [ 106.617335868059627, -5.751469059069856 ], [ 106.617326850521138, -5.751472890703518 ], [ 106.617323243768794, -5.751474520550789 ], [ 106.617317833990626, -5.751477079189813 ], [ 106.617308819940504, -5.751482145748139 ], [ 106.617306509113277, -5.751483610824365 ], [ 106.617299807718652, -5.75148785954257 ], [ 106.617290792631337, -5.751492559088068 ], [ 106.617290445774742, -5.751492699195048 ], [ 106.61728177385649, -5.751495953356054 ], [ 106.61727275371193, -5.751498862810576 ], [ 106.617263733734973, -5.751501817744016 ], [ 106.617263733695751, -5.75150181775804 ], [ 106.617254715400122, -5.751505381810344 ], [ 106.617245696008922, -5.751508558089701 ], [ 106.617238555233101, -5.751510931945972 ], [ 106.617236676164808, -5.751511574082471 ], [ 106.617227657427335, -5.751514981872781 ], [ 106.617218641528012, -5.751519394415666 ], [ 106.617217514806555, -5.751520034420012 ], [ 106.617209628379044, -5.751524780649271 ], [ 106.617202232745385, -5.751529120574783 ], [ 106.617200614916769, -5.751530056036366 ], [ 106.617191600091346, -5.75153484893106 ], [ 106.617185194707062, -5.75153821170552 ], [ 106.617182585319114, -5.751539660720347 ], [ 106.617173572945376, -5.751545321657161 ], [ 106.617170354116965, -5.751547296608626 ], [ 106.617164560816335, -5.751551069294027 ], [ 106.617155545578669, -5.75155571651402 ], [ 106.617153666589431, -5.751556386745406 ], [ 106.617146525635079, -5.751558697842663 ], [ 106.617137503642894, -5.751560953983728 ], [ 106.617128482407878, -5.751563478217359 ], [ 106.617122348879477, -5.751565518340901 ], [ 106.6171194628335, -5.751566590382197 ], [ 106.617110446403615, -5.751570815807819 ], [ 106.617103804654107, -5.751574613738073 ], [ 106.617101432776153, -5.751576033406782 ], [ 106.617092420447065, -5.751581710729109 ], [ 106.61708918511772, -5.751583698013262 ], [ 106.617083407565133, -5.751587192405472 ], [ 106.617074395012594, -5.751592782771549 ], [ 106.61707439499007, -5.751592782786434 ], [ 106.617065383999218, -5.751598934098695 ], [ 106.617060081459755, -5.751601866179172 ], [ 106.617056369362871, -5.751603794869911 ], [ 106.617047348786826, -5.751606552869577 ], [ 106.617038326158578, -5.751608584364452 ], [ 106.6170324178116, -5.75161098741628 ], [ 106.6170293085342, -5.751612387440288 ], [ 106.617020298315694, -5.751618812516581 ], [ 106.617018676756516, -5.751620069200905 ], [ 106.617011289187857, -5.751625623814582 ], [ 106.617004592367877, -5.751629151958196 ], [ 106.617002273829655, -5.75163022939304 ], [ 106.616993253124946, -5.751632942149808 ], [ 106.616984231243165, -5.751635238218435 ], [ 106.616975208875601, -5.751637362334836 ], [ 106.616970396363769, -5.751638291703072 ], [ 106.616966185489005, -5.751639125707806 ], [ 106.616957162023553, -5.75164086118951 ], [ 106.616948140411694, -5.751643252972377 ], [ 106.616939121601803, -5.751646636839677 ], [ 106.616937318175175, -5.75164742827886 ], [ 106.616930104814969, -5.751650737023811 ], [ 106.616921086763156, -5.751654389392328 ], [ 106.616913870170734, -5.751656537566269 ], [ 106.616912065936674, -5.751657059423944 ], [ 106.616903042662031, -5.751658862700284 ], [ 106.61689402303702, -5.751661958207932 ], [ 106.61688951929716, -5.751665649411139 ], [ 106.61688501875183, -5.751670485023014 ], [ 106.616881972707361, -5.751674713641799 ], [ 106.616876023317303, -5.751682145631497 ], [ 106.616874222255277, -5.75168377845005 ], [ 106.616867012943516, -5.751688516888978 ], [ 106.616857995442999, -5.751692364884049 ], [ 106.616856659308183, -5.751692871060934 ], [ 106.61684897661226, -5.751695741941578 ], [ 106.616839959423757, -5.751699700514029 ], [ 106.616835702451667, -5.75170197328759 ], [ 106.616830945214403, -5.751704713977729 ], [ 106.616821933106905, -5.751710471726951 ], [ 106.616821031907747, -5.751711057702476 ], [ 106.616812920602555, -5.751716089027911 ], [ 106.616805855757889, -5.751720143549649 ], [ 106.616803906661005, -5.751721197516405 ], [ 106.616794891654948, -5.751725929156482 ], [ 106.616788710122094, -5.751729234976667 ], [ 106.616785877175687, -5.751730847386254 ], [ 106.616776864258838, -5.751736318902577 ], [ 106.616773609676756, -5.75173832060876 ], [ 106.616767852077558, -5.751742050944725 ], [ 106.616760026747841, -5.751747401941092 ], [ 106.61675884133318, -5.751748291842819 ], [ 106.616749830561773, -5.751754523249558 ], [ 106.616746289227791, -5.75175648371121 ], [ 106.61674081566585, -5.751759294286425 ], [ 106.616731798291852, -5.751763187923476 ], [ 106.616726596396717, -5.751765582353696 ], [ 106.616722782116582, -5.751767506079498 ], [ 106.616713768946582, -5.751772888431324 ], [ 106.616711194433179, -5.751774668838927 ], [ 106.616704758685145, -5.751779300772953 ], [ 106.616698914988476, -5.751783746477306 ], [ 106.616695749958481, -5.751786256645308 ], [ 106.616687690500171, -5.751792821126688 ], [ 106.616686742262019, -5.751793577398891 ], [ 106.616677734818808, -5.751800987910175 ], [ 106.616676662591601, -5.751801895219012 ], [ 106.616668726901509, -5.751808230640118 ], [ 106.616665123291241, -5.751810970760046 ], [ 106.616659717064266, -5.751814793590185 ], [ 106.616652283496677, -5.751820049985363 ], [ 106.616650706741794, -5.751821184804709 ], [ 106.616641697139158, -5.751827830990773 ], [ 106.616639895127406, -5.751829127931582 ], [ 106.61663269064735, -5.751835578822991 ], [ 106.616629763843378, -5.751838199483185 ], [ 106.616623686141438, -5.751844029970549 ], [ 106.616620222842045, -5.751847269362397 ], [ 106.616614686732092, -5.751854285967239 ], [ 106.616610176473344, -5.751855676689976 ] ] ] } },
{ "type": "Feature", "properties": { "fid": 14.0, "ID": 13, "ELEV": -25.0 }, "geometry": { "type": "MultiLineString", "coordinates": [ [ [ 106.618295848274599, -5.750924157536046 ], [ 106.618295071431973, -5.750924673533651 ], [ 106.618292476908834, -5.750929202311498 ], [ 106.61829135438127, -5.750931333235906 ], [ 106.618284038454902, -5.750938269080965 ], [ 106.618282351399046, -5.750940308509488 ], [ 106.618275544957228, -5.750947336006457 ], [ 106.618273348737745, -5.750949397430587 ], [ 106.618264340235825, -5.750956410619566 ], [ 106.618264340209336, -5.750956410638101 ], [ 106.618255328288257, -5.750962223586288 ], [ 106.618250412964244, -5.750965492952284 ], [ 106.618246316878228, -5.750968217412379 ], [ 106.618237305979136, -5.750974392097913 ], [ 106.618237032899799, -5.7509745737332 ], [ 106.618228294247942, -5.750980272443494 ], [ 106.618222943208778, -5.750983656526022 ], [ 106.618219282412539, -5.750986115995619 ], [ 106.618210270358361, -5.750991882214 ], [ 106.618209084853476, -5.750992738662681 ], [ 106.618201260709554, -5.750998499567854 ], [ 106.618197696354812, -5.751001813796094 ], [ 106.618192253918977, -5.751006128293061 ], [ 106.618186120409391, -5.751010889460861 ], [ 106.618183244446143, -5.751012808072595 ], [ 106.618174230872214, -5.751018036876753 ], [ 106.618170434938733, -5.751019976777502 ], [ 106.618165217262032, -5.751023252921275 ], [ 106.618156204392605, -5.751028731131157 ], [ 106.618155730139804, -5.751029061313309 ], [ 106.618147196617556, -5.751036011935069 ], [ 106.61814489302779, -5.75103813488272 ], [ 106.618138192905647, -5.751044730478282 ], [ 106.618135680339847, -5.751047203846268 ], [ 106.618129187129924, -5.751052718874449 ], [ 106.618124567262527, -5.751056278197921 ], [ 106.618120177542721, -5.75105935875252 ], [ 106.618111164288976, -5.751064701366977 ], [ 106.618109876366916, -5.751065362693576 ], [ 106.618102149225322, -5.751069403646909 ], [ 106.618093134177968, -5.751074111758204 ], [ 106.618092533245516, -5.751074454708717 ], [ 106.618084120892277, -5.751079443267786 ], [ 106.618077434017238, -5.75108354036153 ], [ 106.618075108225383, -5.751084993809164 ], [ 106.618066094312283, -5.751090103455982 ], [ 106.618061264823055, -5.75109262904765 ], [ 106.618057079643975, -5.751094945944591 ], [ 106.618048065393083, -5.751099936201172 ], [ 106.618045060976826, -5.751101717831697 ], [ 106.618039052344685, -5.751105352018251 ], [ 106.618030330638277, -5.751110802437792 ], [ 106.618030039907339, -5.751110984123064 ], [ 106.61802102900316, -5.75111715880644 ], [ 106.618017733646923, -5.751119880995293 ], [ 106.618012021947692, -5.751124695438532 ], [ 106.618007707895643, -5.75112895226283 ], [ 106.618003020872266, -5.751134348194916 ], [ 106.61800013535435, -5.751138016575131 ], [ 106.617994186883436, -5.751147076282971 ], [ 106.617994029056717, -5.751147277686766 ], [ 106.61798502232115, -5.751154927809309 ], [ 106.617981514783622, -5.751156155052984 ], [ 106.617976001177169, -5.751157479524021 ], [ 106.617966974796573, -5.751158178267493 ], [ 106.617957948540891, -5.75115892123133 ], [ 106.617948924994721, -5.75116062301311 ], [ 106.617939904790134, -5.751163507283146 ], [ 106.617934985375854, -5.751165329809998 ], [ 106.617930886181156, -5.751166956232471 ], [ 106.617921869131791, -5.7511709571264 ], [ 106.617914586798477, -5.751174430483599 ], [ 106.617912853110681, -5.751175321941262 ], [ 106.617903837854698, -5.75117995757514 ], [ 106.617897160244212, -5.751183522731078 ], [ 106.617894823242779, -5.751184821186165 ], [ 106.617885812512696, -5.751191058536849 ], [ 106.617884097191109, -5.751192602607906 ], [ 106.617876810298981, -5.751200309693747 ], [ 106.617875661593672, -5.751201669366035 ], [ 106.617868413299803, -5.751210732758194 ], [ 106.617867813530935, -5.751211488044783 ], [ 106.617859561043559, -5.75121980069742 ], [ 106.617858810540397, -5.751220464511918 ], [ 106.617849799273358, -5.751226512200815 ], [ 106.617845472332561, -5.751228883481406 ], [ 106.617840784298664, -5.751231247895701 ], [ 106.617831769301588, -5.751235975735112 ], [ 106.617828350393268, -5.75123797486398 ], [ 106.617822756025276, -5.751241312591492 ], [ 106.617814026047029, -5.751247058315442 ], [ 106.617813744407442, -5.751247236428497 ], [ 106.617804730854715, -5.751252475597822 ], [ 106.617797157447527, -5.751256148979182 ], [ 106.617795714682032, -5.751256787667454 ], [ 106.617786697379827, -5.751260700069182 ], [ 106.617778264351344, -5.751265245381605 ], [ 106.617777682767169, -5.751265564330486 ], [ 106.617768670766708, -5.751271353101814 ], [ 106.61776428074397, -5.751274327866295 ], [ 106.617759659817267, -5.75127751389655 ], [ 106.617751325252215, -5.751283407436307 ], [ 106.617750649537442, -5.751283911742678 ], [ 106.617741638995867, -5.75129021703591 ], [ 106.61773829202744, -5.751292487226487 ], [ 106.617732628569925, -5.751296563322657 ], [ 106.617726227821677, -5.751301564269583 ], [ 106.617723620609212, -5.751303782141894 ], [ 106.617716966844995, -5.751310633366198 ], [ 106.617714618442221, -5.751313051461183 ], [ 106.617707370509251, -5.751319703413381 ], [ 106.617705612824352, -5.751321099600162 ], [ 106.617696601047726, -5.751326968210751 ], [ 106.617693181627232, -5.751328786478885 ], [ 106.617687585800837, -5.751331608746366 ], [ 106.617678570025078, -5.751336062162014 ], [ 106.617674963809023, -5.751337880964791 ], [ 106.617669554266271, -5.751340521641801 ], [ 106.617660539427618, -5.751345306834319 ], [ 106.617657860017729, -5.75134697229243 ], [ 106.617651527903163, -5.751351265035717 ], [ 106.617645590901603, -5.751356049915325 ], [ 106.617642520602743, -5.751358718270656 ], [ 106.617634413196811, -5.751365124444355 ], [ 106.617633512316303, -5.751365822616727 ], [ 106.617624497204091, -5.751370511279631 ], [ 106.61761547750055, -5.751373575033136 ], [ 106.617613909162529, -5.751374225409374 ], [ 106.617606459706465, -5.75137731463443 ], [ 106.617597448324091, -5.751383314913269 ], [ 106.617597448299733, -5.751383314928936 ], [ 106.617588438774717, -5.751389981286968 ], [ 106.617584510145761, -5.751392394431803 ], [ 106.617579425539176, -5.751395334468254 ], [ 106.617570408814288, -5.751399452734947 ], [ 106.617566046011206, -5.751401489613443 ], [ 106.617561393958823, -5.751404232708964 ], [ 106.617552621097872, -5.751410570511148 ], [ 106.617552384027988, -5.751410755735283 ], [ 106.617543375031474, -5.751417609525224 ], [ 106.617540459835155, -5.751419647826896 ], [ 106.617534363565483, -5.751423589361237 ], [ 106.617526170510672, -5.75142873117434 ], [ 106.617525351212166, -5.751429255210684 ], [ 106.617516337171338, -5.75143432386383 ], [ 106.617508496331013, -5.75143782411561 ], [ 106.617507320272765, -5.751438381105549 ], [ 106.617498304304291, -5.751442767603483 ], [ 106.617491023872461, -5.751446916484732 ], [ 106.617489291130667, -5.751448143386995 ], [ 106.61748028119824, -5.751454666446901 ], [ 106.617478417025225, -5.751455995062591 ], [ 106.61747126863925, -5.751460259918106 ], [ 106.617463457700495, -5.751465080308003 ], [ 106.617462255763627, -5.751465741389878 ], [ 106.617453246145203, -5.751472375817716 ], [ 106.617450994081267, -5.751474158479524 ], [ 106.617444236255679, -5.751478914367171 ], [ 106.617437303589398, -5.751483240128209 ], [ 106.617435223668366, -5.751484498112502 ], [ 106.617426211619431, -5.751490272484232 ], [ 106.617423637886716, -5.751492321706427 ], [ 106.617417203519693, -5.751497444774091 ], [ 106.617412339360001, -5.751501396575225 ], [ 106.617408195124511, -5.751504512575019 ], [ 106.617399384243967, -5.751510476139089 ], [ 106.617399184004086, -5.751510615830583 ], [ 106.617390171686253, -5.751516295326148 ], [ 106.617384856492691, -5.751519560159981 ], [ 106.617381160918029, -5.75152252339861 ], [ 106.617373538789607, -5.751528635082674 ], [ 106.617372153663922, -5.751529995424514 ], [ 106.617363145870854, -5.751537276762732 ], [ 106.617362394711833, -5.751537709513152 ], [ 106.617354130504708, -5.751541877564219 ], [ 106.617345111137965, -5.751545062329987 ], [ 106.61734010032248, -5.751546815545418 ], [ 106.617336091846397, -5.751548273760061 ], [ 106.617327074369157, -5.751552127453484 ], [ 106.617319862352304, -5.751555915748849 ], [ 106.617318059559892, -5.751556925606097 ], [ 106.61730904636606, -5.751562295642866 ], [ 106.617304695493715, -5.751565001579672 ], [ 106.61730003228999, -5.751567353457162 ], [ 106.617291014051347, -5.751570937868045 ], [ 106.617281992057428, -5.751573193037955 ], [ 106.617276438741442, -5.75157412450798 ], [ 106.617272968150758, -5.75157477115512 ], [ 106.617263946312335, -5.751577081436139 ], [ 106.617254928384398, -5.751580776021338 ], [ 106.617249379449646, -5.751583244041507 ], [ 106.617245911500802, -5.75158484034092 ], [ 106.617236891939257, -5.751587956754324 ], [ 106.617227871048627, -5.751590602721504 ], [ 106.617222649057567, -5.751592362641891 ], [ 106.617218851615291, -5.751593764608348 ], [ 106.61720983500291, -5.751597925149384 ], [ 106.617202261203659, -5.751601463266867 ], [ 106.61720081868728, -5.751602190799167 ], [ 106.617191803291476, -5.751606782119206 ], [ 106.617184174600141, -5.751610557369735 ], [ 106.617182787644936, -5.751611284744546 ], [ 106.617173773836427, -5.751616438094342 ], [ 106.617168858318735, -5.751619643621381 ], [ 106.617164762377953, -5.751622423441488 ], [ 106.61715600976548, -5.751628722879509 ], [ 106.617155752299837, -5.751628897513866 ], [ 106.617146739419326, -5.751634379593686 ], [ 106.617140061419107, -5.751637810921835 ], [ 106.61713772401545, -5.751638968450057 ], [ 106.617128707410885, -5.751643132312764 ], [ 106.617120082263853, -5.751646910386477 ], [ 106.617119690175684, -5.751647072980846 ], [ 106.617110671460011, -5.751650489594298 ], [ 106.61710165261286, -5.751653859709225 ], [ 106.617095639810856, -5.751656022498651 ], [ 106.617092633462093, -5.751657122391469 ], [ 106.617083614856185, -5.75166057801331 ], [ 106.617074597239139, -5.751664383768316 ], [ 106.617073094636126, -5.751665129233575 ], [ 106.61706558264828, -5.751669260911412 ], [ 106.617056859528134, -5.751674218086824 ], [ 106.617056568776846, -5.751674392815472 ], [ 106.61704755348471, -5.751679021816336 ], [ 106.617038536291716, -5.751682977929521 ], [ 106.617037814957612, -5.751683314900931 ], [ 106.617029519623728, -5.751687119959408 ], [ 106.617020502540299, -5.751691114970867 ], [ 106.617017496757327, -5.75169241532361 ], [ 106.617011484939695, -5.751694926935619 ], [ 106.617002467970252, -5.751698962415362 ], [ 106.61699712505289, -5.751701515897356 ], [ 106.61699345195251, -5.751703334881346 ], [ 106.616984435415432, -5.751707523545567 ], [ 106.616977057330772, -5.751710615609184 ], [ 106.616975417555466, -5.751711243912627 ], [ 106.616966396863049, -5.751713961525519 ], [ 106.61695737476596, -5.751716181863387 ], [ 106.616948352124368, -5.751718209462418 ], [ 106.616942839133259, -5.751719755416745 ], [ 106.616939331180674, -5.751720838231982 ], [ 106.616930314516395, -5.751724982170783 ], [ 106.616924713205563, -5.751728849624958 ], [ 106.6169213042498, -5.751731391270644 ], [ 106.61691229386058, -5.751737757039682 ], [ 106.616911983015768, -5.751737928543924 ], [ 106.616903279288991, -5.751742642093543 ], [ 106.616894262343365, -5.751746686675779 ], [ 106.616893541009048, -5.75174702364705 ], [ 106.61688524674085, -5.751751206850382 ], [ 106.616876231253144, -5.751755767732058 ], [ 106.616875563458549, -5.751756117433726 ], [ 106.616867216708343, -5.751760662525863 ], [ 106.616858869957881, -5.751765207581732 ], [ 106.616858202202565, -5.751765571195969 ], [ 106.616849187406174, -5.751770377042022 ], [ 106.61684155912512, -5.751774299478543 ], [ 106.616840172168921, -5.751775026852751 ], [ 106.616831158173341, -5.751780116365805 ], [ 106.616825925112252, -5.751783386623918 ], [ 106.616822146287419, -5.75178595290687 ], [ 106.616813401855396, -5.751792464955122 ], [ 106.616813136878804, -5.751792666662344 ], [ 106.616804127699666, -5.751799461755703 ], [ 106.616801124102295, -5.75180154259056 ], [ 106.616795115659002, -5.751805243733149 ], [ 106.616786100733549, -5.751810004348029 ], [ 106.616784937531648, -5.751810631300776 ], [ 106.616777086085222, -5.751814863155902 ], [ 106.61676953547628, -5.751819717787909 ], [ 106.616768074383415, -5.751820765326825 ], [ 106.616759065785473, -5.751827766588067 ], [ 106.61675767971775, -5.751828794227123 ], [ 106.61675005723319, -5.751834784102329 ], [ 106.616746130495969, -5.751837869797694 ], [ 106.616741050386537, -5.751842405635776 ], [ 106.616736097601901, -5.751846941071994 ], [ 106.616732045801498, -5.751850828064142 ], [ 106.61672635830385, -5.751856011514376 ], [ 106.616723040608136, -5.75185903518337 ], [ 106.616715622548526, -5.751865084779864 ], [ 106.616714032739139, -5.751866294989632 ], [ 106.616705021464824, -5.751872349093957 ], [ 106.616702487356378, -5.75187416484334 ], [ 106.616696011621954, -5.751878910139379 ], [ 106.616691034497549, -5.751883240140261 ], [ 106.616687004948361, -5.75188659347339 ], [ 106.616681329288141, -5.751892310485656 ], [ 106.616678839036396, -5.751901360389766 ], [ 106.616678456152371, -5.751905882898941 ] ] ] } },
{ "type": "Feature", "properties": { "fid": 15.0, "ID": 14, "ELEV": -30.0 }, "geometry": { "type": "MultiLineString", "coordinates": [ [ [ 106.618362469568169, -5.750969696628245 ], [ 106.618362118474522, -5.750974219044664 ], [ 106.618361237384462, -5.750983264384818 ], [ 106.618354723009276, -5.750991539345521 ], [ 106.618354194144828, -5.750992327198838 ], [ 106.618346286794321, -5.751001392463158 ], [ 106.618345723858738, -5.751001870008045 ], [ 106.618336715206979, -5.751008839377011 ], [ 106.618334462724917, -5.751010468833876 ], [ 106.618327703998403, -5.751014904267974 ], [ 106.618320360683441, -5.751019551663932 ], [ 106.618318691768465, -5.751020607877453 ], [ 106.618309679538328, -5.751026311497112 ], [ 106.618306139241881, -5.751028634832331 ], [ 106.618300667902446, -5.75103222542296 ], [ 106.618292589055883, -5.751037716097096 ], [ 106.618291656820233, -5.751038335311293 ], [ 106.618282645386444, -5.751044320891237 ], [ 106.618278783076875, -5.751046798086974 ], [ 106.618273633165103, -5.751050027914074 ], [ 106.618264619652692, -5.751055278221269 ], [ 106.618263537938262, -5.751055884157439 ], [ 106.618255605856177, -5.75106042809075 ], [ 106.618247673773837, -5.751064971982888 ], [ 106.618246592181094, -5.751065620981726 ], [ 106.618237579312492, -5.751071099281772 ], [ 106.618232906298601, -5.751074056698374 ], [ 106.618228567264438, -5.751076867958079 ], [ 106.618219555442707, -5.751082716790168 ], [ 106.618218862133091, -5.751083139362676 ], [ 106.618210542291749, -5.751088095402098 ], [ 106.618203866279643, -5.751092224725225 ], [ 106.618201530101089, -5.751093813841377 ], [ 106.618192522933029, -5.751101299731053 ], [ 106.61819252290573, -5.751101299754324 ], [ 106.618183516906029, -5.751109208786549 ], [ 106.618182192515093, -5.751110371864666 ], [ 106.6181745091382, -5.751116492326375 ], [ 106.618170906146787, -5.751119446708696 ], [ 106.618165500131227, -5.751123337525787 ], [ 106.618158292100631, -5.751128525317091 ], [ 106.618156489894588, -5.751129747726404 ], [ 106.618147479246289, -5.751136012347748 ], [ 106.61814533413137, -5.751137604900467 ], [ 106.618138468227031, -5.751142145803277 ], [ 106.618129726314365, -5.75114669199692 ], [ 106.618129453123075, -5.751146834069297 ], [ 106.618120437220355, -5.751151239770175 ], [ 106.61811169530732, -5.751155785963618 ], [ 106.618111422260469, -5.751155979143382 ], [ 106.618102414447961, -5.751163247508325 ], [ 106.618100355388208, -5.751164860958634 ], [ 106.618093405709729, -5.751170188416192 ], [ 106.618087289929008, -5.751173940845931 ], [ 106.618084393210736, -5.751175798732259 ], [ 106.618075380784774, -5.751181434962455 ], [ 106.618073278661669, -5.751183023414668 ], [ 106.618066376567668, -5.751189975833994 ], [ 106.61806440760067, -5.751192091409377 ], [ 106.61805737627914, -5.751199906874618 ], [ 106.618056090023146, -5.751201157834761 ], [ 106.618048370107417, -5.751207756330922 ], [ 106.618044314358443, -5.751210234064592 ], [ 106.618039356391762, -5.75121293654318 ], [ 106.618030338764797, -5.751216732844513 ], [ 106.618021317858194, -5.751219342107687 ], [ 106.618021317783018, -5.751219342129426 ], [ 106.618012296721545, -5.751221923259023 ], [ 106.618003277527691, -5.751225165276624 ], [ 106.617996891727884, -5.751228454203284 ], [ 106.617994264257973, -5.75123050357953 ], [ 106.617988265202868, -5.75123752150403 ], [ 106.617988782089142, -5.751246562881806 ], [ 106.617993833572314, -5.751255591403252 ], [ 106.617994337024271, -5.751256251662722 ], [ 106.617999332807628, -5.751264618655146 ], [ 106.618003411629658, -5.751272616443771 ], [ 106.618003889733998, -5.751273648578566 ], [ 106.618006120380471, -5.751282685097387 ], [ 106.618006213394693, -5.75129172767681 ], [ 106.618003485539134, -5.751298768690692 ], [ 106.618001986480266, -5.751300782504125 ], [ 106.617994474549675, -5.751304914195882 ], [ 106.617985444702967, -5.751304387236203 ], [ 106.617976407427975, -5.7513012318185 ], [ 106.617975653990101, -5.751300857161501 ], [ 106.617967363784246, -5.751295822806458 ], [ 106.617959780392752, -5.751291859322097 ], [ 106.617958321265945, -5.751290811977623 ], [ 106.617949282138738, -5.751287001054854 ], [ 106.617940247588265, -5.751284809599648 ], [ 106.617931216775887, -5.751283940887338 ], [ 106.617922194668793, -5.751286152628978 ], [ 106.617913179514133, -5.751290824599479 ], [ 106.617911678073426, -5.751291995696191 ], [ 106.617904166412089, -5.75129622297883 ], [ 106.617895150684149, -5.751300692220153 ], [ 106.617894023232637, -5.751301088591751 ], [ 106.617886130389678, -5.751303545575947 ], [ 106.617877108752765, -5.751305923938111 ], [ 106.61786808876586, -5.751308886215951 ], [ 106.617864932588134, -5.751310213907177 ], [ 106.61785907142837, -5.751312786098226 ], [ 106.617850054808301, -5.751316939914686 ], [ 106.617843290286928, -5.751319318105851 ], [ 106.617841035459989, -5.751320128323509 ], [ 106.617832015232565, -5.751323005688305 ], [ 106.617822995781296, -5.751326157763064 ], [ 106.617818077642752, -5.751328432425451 ], [ 106.617813979825996, -5.751330547035814 ], [ 106.61780496699032, -5.751336040353215 ], [ 106.617802714078493, -5.751337518823357 ], [ 106.617795956278854, -5.751342285457775 ], [ 106.617789842076974, -5.751346598157768 ], [ 106.617786946026712, -5.751348693184613 ], [ 106.617777935479367, -5.751354996528998 ], [ 106.61777700341672, -5.751355677397483 ], [ 106.617768923551708, -5.751360811468783 ], [ 106.617762485876284, -5.751364761396336 ], [ 106.617759910462865, -5.751366215550844 ], [ 106.617750897627332, -5.751371709349025 ], [ 106.617747717164505, -5.751373846106966 ], [ 106.617741887063801, -5.75137800726204 ], [ 106.617735723667224, -5.751382922950231 ], [ 106.617732878629454, -5.751385058757267 ], [ 106.617723868023248, -5.751391341727472 ], [ 106.61772277552474, -5.751392002499538 ], [ 106.617714855316237, -5.751396881300814 ], [ 106.617707813789153, -5.751401087756673 ], [ 106.617705842584186, -5.751402412088171 ], [ 106.617696831330662, -5.751408466195578 ], [ 106.617694296908866, -5.751410168917789 ], [ 106.617687821825982, -5.751415139295924 ], [ 106.617682788153203, -5.751419244386272 ], [ 106.617678815182842, -5.751422825191153 ], [ 106.617672723291477, -5.751428315761629 ], [ 106.61766980975618, -5.751430941693283 ], [ 106.617662210272343, -5.751437388407277 ], [ 106.617660803075225, -5.751438614387139 ], [ 106.617651795539985, -5.751445984825467 ], [ 106.617651214403807, -5.751446462421537 ], [ 106.617642787595372, -5.751453210474032 ], [ 106.617639881779482, -5.751455537390261 ], [ 106.61763377997805, -5.751460552037482 ], [ 106.61762884040067, -5.751464611533285 ], [ 106.617624772291535, -5.751467869205184 ], [ 106.617617265076632, -5.751473687189716 ], [ 106.617615763496744, -5.751474794215652 ], [ 106.617606753711087, -5.751481368633425 ], [ 106.617604500587447, -5.751482766216816 ], [ 106.617597738738141, -5.751486107252461 ], [ 106.617588719969802, -5.751489502668684 ], [ 106.617580902125553, -5.751491875953375 ], [ 106.61757969928712, -5.751492220609689 ], [ 106.61757068121112, -5.751495861156275 ], [ 106.617561667326399, -5.751500973320248 ], [ 106.617561667293018, -5.751500973341383 ], [ 106.617552656828281, -5.75150730782983 ], [ 106.617548617400274, -5.751510053155586 ], [ 106.617543645769132, -5.751513432021676 ], [ 106.617534632940789, -5.751518930116002 ], [ 106.61753425733373, -5.751519136704318 ], [ 106.617525620298551, -5.751524494143551 ], [ 106.617519064736541, -5.751528222612594 ], [ 106.617516606998308, -5.751529825360266 ], [ 106.617507593736505, -5.751535170246613 ], [ 106.61750416038744, -5.751537307703573 ], [ 106.617498581225888, -5.751540781071389 ], [ 106.617489979102629, -5.751546390744818 ], [ 106.617489569424791, -5.751546643101493 ], [ 106.617480557904685, -5.751552604646473 ], [ 106.617476553377585, -5.751555471644272 ], [ 106.61747154803902, -5.751559151851093 ], [ 106.617463923937137, -5.751564550286544 ], [ 106.617462537628029, -5.75156550611346 ], [ 106.617453525964194, -5.751571417022533 ], [ 106.617450188376708, -5.751573632063801 ], [ 106.617444514004319, -5.751577223224563 ], [ 106.617437416244584, -5.75158271111015 ], [ 106.617435505224748, -5.751584155153144 ], [ 106.617426736007857, -5.751591784227191 ], [ 106.617426498997105, -5.75159199042263 ], [ 106.617417493295733, -5.751600012056111 ], [ 106.617416433496487, -5.751600856273528 ], [ 106.617408485628488, -5.751607337958183 ], [ 106.617405209888787, -5.751609930930439 ], [ 106.617399479538335, -5.751615222161334 ], [ 106.617395507124897, -5.751619001276705 ], [ 106.617390485005203, -5.75162719711755 ], [ 106.617389283635362, -5.751628061761632 ], [ 106.617381469524133, -5.751631757544915 ], [ 106.617372438759972, -5.751630908462139 ], [ 106.617363411075232, -5.751631149373315 ], [ 106.617354387272243, -5.751632764299289 ], [ 106.61734536491339, -5.751634890422813 ], [ 106.617336341949724, -5.751636802504831 ], [ 106.617334749963121, -5.751637259169201 ], [ 106.617327321100234, -5.751639462970731 ], [ 106.617318301474, -5.75164255647384 ], [ 106.617309281498621, -5.751645526437311 ], [ 106.617306097466837, -5.751646383221434 ], [ 106.617300260530072, -5.751648144885452 ], [ 106.617291238874515, -5.751650520197287 ], [ 106.617282218427789, -5.751653323445707 ], [ 106.61727706552216, -5.751655508347877 ], [ 106.617273201490406, -5.751657368972931 ], [ 106.617264189453024, -5.751663149059549 ], [ 106.617262278432364, -5.751664593102158 ], [ 106.617255181422905, -5.751670347710732 ], [ 106.617250958762739, -5.751673668029287 ], [ 106.617246172814632, -5.75167734179367 ], [ 106.617238127063032, -5.751682747241461 ], [ 106.617237161508299, -5.751683380888146 ], [ 106.61722814687765, -5.751688243294279 ], [ 106.617220079048266, -5.751691841236639 ], [ 106.617219129843548, -5.751692254974088 ], [ 106.617210112863248, -5.751696285752037 ], [ 106.61720109702982, -5.751700722567604 ], [ 106.61720066771143, -5.751700939095048 ], [ 106.617192082115693, -5.751705484872411 ], [ 106.617183065954407, -5.751709805748121 ], [ 106.617182565010452, -5.751710033244338 ], [ 106.617174049154428, -5.751713900593157 ], [ 106.61716503250635, -5.751718049264558 ], [ 106.617162885976612, -5.751719131860439 ], [ 106.617156016137017, -5.751722296670343 ], [ 106.617146998245119, -5.751726005149197 ], [ 106.617140985605289, -5.751728236771088 ], [ 106.617137979270595, -5.751729330422701 ], [ 106.617128959699244, -5.751732444465175 ], [ 106.617119939263176, -5.751735252437297 ], [ 106.617113572201546, -5.751737357304271 ], [ 106.617110919700295, -5.751738369569072 ], [ 106.617101902189575, -5.751742213234703 ], [ 106.617093296201645, -5.751746457610247 ], [ 106.617092886436907, -5.751746679333824 ], [ 106.617083872114037, -5.751751651651717 ], [ 106.617077632697203, -5.751755544844788 ], [ 106.617074859517217, -5.751757235090785 ], [ 106.617065848124867, -5.751763245004798 ], [ 106.617063813369654, -5.751764626853034 ], [ 106.617056836486981, -5.751769168066393 ], [ 106.617048182101939, -5.751773713995677 ], [ 106.617047821483098, -5.751773899569796 ], [ 106.617038803090722, -5.751777431532983 ], [ 106.617029782993214, -5.751780359890353 ], [ 106.617021965417578, -5.751782831134231 ], [ 106.617020762802099, -5.751783255148985 ], [ 106.617011742661802, -5.75178616845418 ], [ 106.617002723086472, -5.751789281814469 ], [ 106.616994992039395, -5.751791950416036 ], [ 106.616993703511071, -5.751792395192076 ], [ 106.616984683312452, -5.751795287979202 ], [ 106.61697566482691, -5.751798787307651 ], [ 106.61697115710885, -5.751801060803579 ], [ 106.616966649818167, -5.751803517592236 ], [ 106.616957637397832, -5.75180916433571 ], [ 106.616956195598462, -5.751810146046519 ], [ 106.616948626760703, -5.751815442484129 ], [ 106.616943220438117, -5.751819225660677 ], [ 106.616939616200057, -5.751821747781088 ], [ 106.616930604332168, -5.751827590333873 ], [ 106.61692937519571, -5.7518283077401 ], [ 106.616921589336201, -5.751832325487204 ], [ 106.616912573590696, -5.751836795327028 ], [ 106.61691128551314, -5.751837401846165 ], [ 106.616903556989428, -5.751840962249326 ], [ 106.616894540906216, -5.751845312646759 ], [ 106.616892189045572, -5.751846498804564 ], [ 106.616885525587776, -5.751849933868312 ], [ 106.616876510910757, -5.751854782250917 ], [ 106.616874943016114, -5.751855590519281 ], [ 106.616867495431649, -5.751859346713772 ], [ 106.616858478863392, -5.751863525620663 ], [ 106.616855902621552, -5.751864687317906 ], [ 106.61684946197596, -5.751867591579449 ], [ 106.616840446718641, -5.751872234750644 ], [ 106.616837960494465, -5.751873781004183 ], [ 106.616831435536753, -5.751878320937824 ], [ 106.616826181802736, -5.751882857226452 ], [ 106.616822430088888, -5.751886437400782 ], [ 106.616816512682988, -5.751891927471293 ], [ 106.616813425761023, -5.751894950516517 ], [ 106.616806453130749, -5.751900998822304 ], [ 106.616804419595709, -5.751902813143905 ], [ 106.616795411055463, -5.751909834982613 ], [ 106.616795089281695, -5.751910073868799 ], [ 106.616786402064506, -5.751916697314434 ], [ 106.616783065145114, -5.751919150786001 ], [ 106.616777393071743, -5.751923559094851 ], [ 106.61677180244186, -5.751928225545647 ], [ 106.616768387270369, -5.751931550938846 ], [ 106.616762488353842, -5.75193729478408 ], [ 106.616759383125739, -5.751940129485848 ], [ 106.616752779933876, -5.751946365139712 ], [ 106.616750375967612, -5.751947641122116 ], [ 106.616747415951608, -5.751950901761845 ], [ 106.616745873285126, -5.751951714431689 ] ] ] } },
{ "type": "Feature", "properties": { "fid": 16.0, "ID": 15, "ELEV": -40.0 }, "geometry": { "type": "MultiLineString", "coordinates": [ [ [ 106.618696090481166, -5.75198337256676 ], [ 106.618692422393295, -5.7519815589811 ], [ 106.618691568793636, -5.751980718450708 ], [ 106.618682542884699, -5.751981587063177 ], [ 106.618678517440074, -5.751977077005758 ], [ 106.618678554665323, -5.751968034060178 ], [ 106.618682492597472, -5.751963802958718 ], [ 106.618688497821665, -5.751958963014253 ], [ 106.61869150238185, -5.751957231998484 ], [ 106.618700513170893, -5.75195101640902 ], [ 106.618702014626322, -5.751949881830715 ], [ 106.618702992221174, -5.751940836217643 ], [ 106.618709497587147, -5.751935474253011 ], [ 106.618718517336205, -5.751932427526096 ], [ 106.618723038354091, -5.751934844966579 ], [ 106.618723982809527, -5.751936255252427 ] ] ] } },
{ "type": "Feature", "properties": { "fid": 17.0, "ID": 16, "ELEV": -35.0 }, "geometry": { "type": "MultiLineString", "coordinates": [ [ [ 106.61845188164537, -5.751032742966472 ], [ 106.618449997201282, -5.751037269731122 ], [ 106.618445161421008, -5.751046326285983 ], [ 106.618445161386404, -5.751046326325394 ], [ 106.618437770844139, -5.751055390085864 ], [ 106.618436165395735, -5.751057774314636 ], [ 106.618430165377902, -5.751064454495104 ], [ 106.618427173844822, -5.751070793036535 ], [ 106.618425098104765, -5.751073511706414 ], [ 106.618422345754652, -5.751082562352987 ], [ 106.618418191576225, -5.751087095629588 ], [ 106.618409170178253, -5.751089555789277 ], [ 106.618400143536974, -5.751090161079474 ], [ 106.618395633807523, -5.751091680944518 ], [ 106.618391121990655, -5.751092568824059 ], [ 106.61838210285579, -5.751095829716851 ], [ 106.618373084866462, -5.751099495909331 ], [ 106.61837007909125, -5.751100796253412 ], [ 106.618364066964247, -5.751103192978327 ], [ 106.618355050119035, -5.751107264041458 ], [ 106.618350091955364, -5.751109895773301 ], [ 106.618346035455247, -5.751112106896609 ], [ 106.618337021929989, -5.751117352608223 ], [ 106.618334498610182, -5.751118982833216 ], [ 106.618328011769051, -5.75112378862069 ], [ 106.618322467901763, -5.751128059790348 ], [ 106.61831900350407, -5.751130895461906 ], [ 106.618309992105139, -5.751136893648635 ], [ 106.618309562947971, -5.751137139226393 ], [ 106.618300977294837, -5.7511416850159 ], [ 106.618291961838665, -5.751146231978873 ], [ 106.618291961793602, -5.751146232003442 ], [ 106.618282948474146, -5.751151550947334 ], [ 106.618276286052975, -5.751155319271488 ], [ 106.61827393462454, -5.751156682391403 ], [ 106.618264921982984, -5.751162241303378 ], [ 106.618261584269945, -5.751164403801937 ], [ 106.618255911856536, -5.751168690109557 ], [ 106.618249799029698, -5.751173480062059 ], [ 106.618246904252956, -5.751176031576493 ], [ 106.618239231893256, -5.751182552868029 ], [ 106.618237897749609, -5.751183762394031 ], [ 106.618228889295139, -5.751190802989152 ], [ 106.618227660524781, -5.751191628521444 ], [ 106.618219878511866, -5.751197019741536 ], [ 106.618214020485865, -5.751200710040498 ], [ 106.618210866576547, -5.75120282897618 ], [ 106.618201855415691, -5.751208912291994 ], [ 106.618200626795158, -5.75120979086082 ], [ 106.61819284635169, -5.751215737559519 ], [ 106.618188556029509, -5.751218867929802 ], [ 106.618183837695284, -5.751222707116307 ], [ 106.618177403690439, -5.751227942394456 ], [ 106.618174830825126, -5.751230308750812 ], [ 106.618167873308181, -5.751237012259992 ], [ 106.618165826988829, -5.75123898387148 ], [ 106.618157721553203, -5.75124608388732 ], [ 106.618156820930153, -5.751246872794692 ], [ 106.618147813937568, -5.751254431378353 ], [ 106.618146956122288, -5.751255157254594 ], [ 106.618138811978881, -5.751263771116152 ], [ 106.618138452185846, -5.751264224209462 ], [ 106.618134324704883, -5.751273278755193 ], [ 106.618130458741149, -5.751282332559413 ], [ 106.618129838133257, -5.751283057763064 ], [ 106.618120828798382, -5.751289787931172 ], [ 106.618117071601006, -5.751291413360075 ], [ 106.618111810339727, -5.75129329003061 ], [ 106.618102790992253, -5.751296477695245 ], [ 106.618093772955476, -5.751300129161494 ], [ 106.618093021829011, -5.751300524393077 ], [ 106.618084765862818, -5.751307652962849 ], [ 106.618083837407383, -5.751309593276968 ], [ 106.618083870896015, -5.751318636024803 ], [ 106.618084809674997, -5.751323154671385 ], [ 106.618085748454632, -5.751327673544029 ], [ 106.618087638546214, -5.751336711027697 ], [ 106.618088259182755, -5.751345752110722 ], [ 106.618088170251028, -5.751354795205636 ], [ 106.618088184889132, -5.751363838006886 ], [ 106.618088320787152, -5.751372880464316 ], [ 106.61808790045346, -5.751381924498879 ], [ 106.618085517270529, -5.751390974098896 ], [ 106.618085003734734, -5.751391816768309 ], [ 106.618076224299301, -5.751400043290857 ], [ 106.618075999010131, -5.751400178875162 ], [ 106.618066974538493, -5.751401554167078 ], [ 106.618057942437531, -5.75140023007216 ], [ 106.618057466959513, -5.75140009647478 ], [ 106.618048906581805, -5.751397577440073 ], [ 106.618039871426987, -5.751395172791738 ], [ 106.618030835217994, -5.751392395133961 ], [ 106.618026881778235, -5.751391140350629 ], [ 106.618021798561813, -5.75138945922544 ], [ 106.618012763847346, -5.75138721034203 ], [ 106.61800373434798, -5.751386806738748 ], [ 106.617994707733942, -5.751387424073951 ], [ 106.617985682137586, -5.751388401532223 ], [ 106.61797665766197, -5.75138977557595 ], [ 106.617968923179191, -5.751391304677218 ], [ 106.617967634344595, -5.751391559481465 ], [ 106.617958609607584, -5.751392841090561 ], [ 106.617949585579979, -5.751394373751831 ], [ 106.617940561552629, -5.75139590653541 ], [ 106.617931539848072, -5.751398261265795 ], [ 106.617925990093013, -5.751400469242522 ], [ 106.617922522015633, -5.751401986196346 ], [ 106.617913508635837, -5.75140728676144 ], [ 106.617910188804018, -5.751409556884368 ], [ 106.617904498532027, -5.751413746626703 ], [ 106.617897859851112, -5.751418634681577 ], [ 106.617895489116009, -5.751420449943915 ], [ 106.617886478078248, -5.751426579473787 ], [ 106.617884546709718, -5.751427715268861 ], [ 106.617877463796461, -5.751431561157573 ], [ 106.61786844362662, -5.751434459338778 ], [ 106.617859419491111, -5.751435954264018 ], [ 106.61785039397715, -5.751436854936659 ], [ 106.617850393676278, -5.751436854961313 ], [ 106.617841367460215, -5.751437613702634 ], [ 106.617832343671495, -5.751439231425856 ], [ 106.617823321202266, -5.751441316118797 ], [ 106.617814302085478, -5.751444587175977 ], [ 106.617811081724696, -5.751446009229667 ], [ 106.617805286003701, -5.751448932306176 ], [ 106.617796274174225, -5.751454782279016 ], [ 106.617795898936365, -5.751455095115774 ], [ 106.617787270275883, -5.751463438977219 ], [ 106.617786550040577, -5.751464164463102 ], [ 106.617778266636492, -5.751472187420432 ], [ 106.617777092027538, -5.751473234119691 ], [ 106.617769260224378, -5.751479954739219 ], [ 106.617766257419589, -5.751482307678686 ], [ 106.617760251809926, -5.751487013557592 ], [ 106.61775467520367, -5.751491383356935 ], [ 106.617751243125127, -5.75149397679137 ], [ 106.617743053855619, -5.751500459145982 ], [ 106.617742234684911, -5.751501026659446 ], [ 106.61773322680223, -5.751508273919073 ], [ 106.617732042439798, -5.751509533205838 ], [ 106.617724226154039, -5.751518081465553 ], [ 106.617723776191113, -5.751518599483519 ], [ 106.617716887971099, -5.751527661854698 ], [ 106.617715230466587, -5.751529644668877 ], [ 106.617706218590584, -5.751535479015388 ], [ 106.617699773431127, -5.751536753215401 ], [ 106.617697195159792, -5.751537224271204 ], [ 106.617688173826153, -5.751539711738783 ], [ 106.617679158699829, -5.751544395985411 ], [ 106.61767634152072, -5.751545862483955 ], [ 106.617670141927348, -5.751548497730917 ], [ 106.617661120435784, -5.751550929444951 ], [ 106.617652099630092, -5.751553603932515 ], [ 106.617648879147168, -5.751554983176952 ], [ 106.61764308217947, -5.751557465830488 ], [ 106.61763406736128, -5.75156225941661 ], [ 106.617631221403784, -5.751564076075942 ], [ 106.617625056483305, -5.751568447542174 ], [ 106.617620388424314, -5.751573149628644 ], [ 106.617616056539489, -5.75157850542152 ], [ 106.617613445882569, -5.751582212153179 ], [ 106.617607686905117, -5.751591271322694 ], [ 106.617607067902313, -5.751592564947518 ], [ 106.617602165266277, -5.751600329819428 ], [ 106.617598074959417, -5.751605100767801 ], [ 106.617593008635097, -5.751609398620049 ], [ 106.617589065925145, -5.751611941781714 ], [ 106.617580055117543, -5.7516181552774 ], [ 106.617579679910889, -5.751618479246906 ], [ 106.617571052224193, -5.751627169822669 ], [ 106.617570718959414, -5.751627547492668 ], [ 106.617563439535502, -5.751636610971909 ], [ 106.617562055413984, -5.751638337388943 ], [ 106.617556173008865, -5.751645674414561 ], [ 106.617553057386615, -5.751649074294977 ], [ 106.617545945775362, -5.75165474624954 ], [ 106.617544048713199, -5.751656043479507 ], [ 106.617535031748133, -5.75166007816015 ], [ 106.617526009465337, -5.751662230829153 ], [ 106.617516985915472, -5.751663871182926 ], [ 106.617516985735023, -5.751663871219602 ], [ 106.61750796489406, -5.751666534261705 ], [ 106.617498945500813, -5.751669709734188 ], [ 106.617489926505868, -5.751672990728297 ], [ 106.617489926405668, -5.751672990767894 ], [ 106.617480909822504, -5.751677160917354 ], [ 106.617471895437887, -5.751682084682217 ], [ 106.617471895368581, -5.751682084730014 ], [ 106.617462887245409, -5.751689249284875 ], [ 106.617460635497039, -5.751691159443379 ], [ 106.617453886229796, -5.751698929548954 ], [ 106.617452761316159, -5.751700224607708 ], [ 106.617445488929434, -5.751709288066253 ], [ 106.617444889689523, -5.751710193911316 ], [ 106.617438662367391, -5.751718350261111 ], [ 106.617435894609557, -5.751721975244304 ], [ 106.617429890948529, -5.751727417968469 ], [ 106.617426888031645, -5.751729687119473 ], [ 106.617417878999333, -5.751736494860708 ], [ 106.61741787889936, -5.751736494974029 ], [ 106.617411338301466, -5.751745556245193 ], [ 106.617410290690614, -5.751754602060147 ], [ 106.617411506833648, -5.75176364145874 ], [ 106.617413767951206, -5.751772677895442 ], [ 106.617415599067286, -5.75178171555091 ], [ 106.617415452609009, -5.751790758811623 ], [ 106.617412312519249, -5.751799810557531 ], [ 106.617409039665333, -5.751803436972388 ], [ 106.617400019731434, -5.751806422129295 ], [ 106.617390991435713, -5.751806447718976 ], [ 106.617381958494704, -5.751804829139394 ], [ 106.617372926482574, -5.751803539330769 ], [ 106.617363893077155, -5.751801756365317 ], [ 106.617354862226151, -5.751800877539083 ], [ 106.617345834214106, -5.751801003570923 ], [ 106.617336812370326, -5.751803312915747 ], [ 106.617327793364595, -5.751806626842738 ], [ 106.617321028894494, -5.751809112131704 ], [ 106.617318774000637, -5.751809814024124 ], [ 106.617309753958693, -5.751812761272066 ], [ 106.617300732474959, -5.751815198220669 ], [ 106.61729171287493, -5.751818238066218 ], [ 106.617291712694509, -5.751818238116973 ], [ 106.617282691494239, -5.751820775493753 ], [ 106.617273671129055, -5.751823608497465 ], [ 106.617264650346272, -5.751826293736523 ], [ 106.617262073768202, -5.751827364915163 ], [ 106.617255632568842, -5.751830042819272 ], [ 106.61724661328843, -5.751833259950165 ], [ 106.617237592663741, -5.751836001281599 ], [ 106.617235788624228, -5.751836482257299 ], [ 106.617228571089356, -5.751838406488874 ], [ 106.617219549515085, -5.751840811772462 ], [ 106.617210527940586, -5.751843217017729 ], [ 106.617201505088872, -5.751845170193134 ], [ 106.61719970098207, -5.751845627379429 ], [ 106.617192483446857, -5.751847551610612 ], [ 106.617183463821576, -5.751850646970579 ], [ 106.617174444465022, -5.751853837502135 ], [ 106.617171437587118, -5.751854750325595 ], [ 106.617165423831281, -5.751856575972473 ], [ 106.617156402588833, -5.751859099005391 ], [ 106.617147381285932, -5.751861600679238 ], [ 106.617139863899268, -5.751863882651874 ], [ 106.61713836071857, -5.751864362774691 ], [ 106.617129341010539, -5.751867429114644 ], [ 106.617120322945468, -5.751871077100457 ], [ 106.617115814287189, -5.75187299365404 ], [ 106.617111305701997, -5.751875015995159 ], [ 106.617102289608198, -5.751879361922961 ], [ 106.617096278278623, -5.751882091864323 ], [ 106.617093273006603, -5.75188352815112 ], [ 106.617084256488099, -5.751887723854355 ], [ 106.617075236856678, -5.751890817614839 ], [ 106.61707373339577, -5.751891198600854 ], [ 106.617066216344369, -5.75189359958059 ], [ 106.61705720085719, -5.751898160546093 ], [ 106.617053923792923, -5.751900297585368 ], [ 106.617048196449602, -5.751906643877678 ], [ 106.617045495691713, -5.751909364316321 ], [ 106.617039186331596, -5.75191310574508 ], [ 106.617030169226652, -5.751917094203255 ], [ 106.617027464637204, -5.751918458260111 ], [ 106.617021152532956, -5.751921228311682 ], [ 106.617012135617031, -5.751925283798779 ], [ 106.617005370778415, -5.751927563716515 ], [ 106.617003116025714, -5.751928392197231 ], [ 106.616994096046994, -5.751931363495429 ], [ 106.616985075495563, -5.751934132089337 ], [ 106.616976054476865, -5.751936689638644 ], [ 106.616976054348029, -5.75193668968661 ], [ 106.616967040238293, -5.751941738901353 ], [ 106.61696103272422, -5.751945775053345 ], [ 106.616958029300989, -5.751947911316827 ], [ 106.616949015424794, -5.751953043350134 ], [ 106.616943861364163, -5.751954866559056 ], [ 106.616939995071178, -5.751955882233086 ], [ 106.616930972172469, -5.751957820108674 ], [ 106.616921950958215, -5.751960354377054 ], [ 106.616915588245121, -5.751963989522689 ], [ 106.616912938955906, -5.75196615006528 ], [ 106.616906677853009, -5.751973057619073 ], [ 106.616903946369533, -5.751978819841514 ], [ 106.616902054943637, -5.75198211356637 ], [ 106.616898714666618, -5.751991165879194 ], [ 106.616894962721986, -5.751994654447457 ], [ 106.616889422481094, -5.752000235057346 ], [ 106.616885956860528, -5.75200262455518 ], [ 106.616879956813207, -5.752009304727001 ], [ 106.6168769555062, -5.752012190472708 ], [ 106.616872136326492, -5.752018369734844 ], [ 106.616870022022681, -5.75202741857379 ], [ 106.616869150370533, -5.752031942467639 ] ] ] } },
{ "type": "Feature", "properties": { "fid": 18.0, "ID": 17, "ELEV": -40.0 }, "geometry": { "type": "MultiLineString", "coordinates": [ [ [ 106.618947803429052, -5.751601035354295 ], [ 106.618943289286278, -5.751601048160937 ], [ 106.618937283215004, -5.75160558650657 ], [ 106.618934282310491, -5.751608609299764 ], [ 106.618925250614396, -5.751607428934665 ], [ 106.618916217215713, -5.751605646496315 ], [ 106.618916216312272, -5.751605646272818 ], [ 106.618907184667918, -5.751604164946924 ], [ 106.618898155530005, -5.751603889218313 ], [ 106.61889364695206, -5.751605710300637 ], [ 106.618889145144678, -5.751610244943614 ], [ 106.618886148883135, -5.75161477441115 ], [ 106.618883164260453, -5.751623825717425 ], [ 106.618880181237131, -5.751632877019166 ], [ 106.618880206808527, -5.751641919785812 ], [ 106.618880206359719, -5.751641920691335 ], [ 106.618871190857618, -5.751646467234961 ], [ 106.618862149784803, -5.75164197123773 ], [ 106.61886214948322, -5.751641971012529 ], [ 106.618853108712528, -5.751637475391084 ], [ 106.618846324496516, -5.751632973066529 ], [ 106.618844064799433, -5.751631974887357 ], [ 106.618835021453989, -5.751626675074847 ], [ 106.618831144657975, -5.751623973289782 ], [ 106.618825976973099, -5.751620973669707 ], [ 106.618816936289051, -5.751616614937792 ], [ 106.618814352059161, -5.751614978087545 ], [ 106.618807889148087, -5.751609972706816 ], [ 106.618802718622064, -5.751605968249401 ], [ 106.618798836712543, -5.751601457992359 ], [ 106.618793407093236, -5.751596951824281 ], [ 106.61878977859341, -5.751590933174327 ], [ 106.618788265548233, -5.751587923569856 ], [ 106.61878523020809, -5.751578889340641 ], [ 106.618780700874268, -5.751573476623237 ], [ 106.618777681217466, -5.751569867915246 ], [ 106.618771641903976, -5.751562650499179 ], [ 106.618770347246667, -5.751560845879741 ], [ 106.618764087458942, -5.751551820796982 ], [ 106.618762576544356, -5.751549564588616 ], [ 106.618758043073683, -5.751542795103075 ], [ 106.618753516297389, -5.751538286674754 ], [ 106.618748989219327, -5.751533777945798 ], [ 106.618744465638983, -5.751530399766459 ], [ 106.618735424213583, -5.751525778174275 ], [ 106.618732412327375, -5.751524782128145 ], [ 106.618726386695698, -5.751522538510407 ], [ 106.618717355214528, -5.75152143382778 ], [ 106.618708323733358, -5.751520329150236 ], [ 106.618699297274375, -5.751521000699075 ], [ 106.618690276294302, -5.751523610026294 ], [ 106.618687270900452, -5.751524910174245 ], [ 106.618681256774323, -5.751526735801383 ], [ 106.618672236159298, -5.75152947433081 ], [ 106.618663217816803, -5.751533016651164 ], [ 106.618661716134213, -5.751534025500322 ], [ 106.618654205155337, -5.751538568315511 ], [ 106.618645189833416, -5.75154311521676 ], [ 106.618645189653122, -5.751543115317745 ], [ 106.618636174150751, -5.751547662322404 ], [ 106.618628964029554, -5.75155220408053 ], [ 106.618627162299674, -5.751553500814136 ], [ 106.618618149536815, -5.751559016885206 ], [ 106.618612136688256, -5.751561294650175 ], [ 106.618609130837541, -5.751562433369317 ], [ 106.618600121270589, -5.751569079947877 ], [ 106.618598620399283, -5.751570375828076 ], [ 106.618591112615007, -5.751576048952165 ], [ 106.618585705368005, -5.751579455300386 ], [ 106.61858210414249, -5.751583082788953 ], [ 106.618578250356705, -5.751588519285992 ], [ 106.618574406305797, -5.751597573029619 ], [ 106.618573121021868, -5.751599083623574 ], [ 106.61856410673559, -5.75160406134418 ], [ 106.618555086204452, -5.75160667066853 ], [ 106.618555085753599, -5.751606670850659 ], [ 106.618547587554957, -5.751615734777733 ], [ 106.618546095816001, -5.75162026088127 ], [ 106.618544303215742, -5.751624786933814 ], [ 106.618537100763575, -5.751632041910708 ], [ 106.618534096829379, -5.75163385872294 ], [ 106.618528087814809, -5.751637493040552 ], [ 106.618523589160375, -5.751642931366494 ], [ 106.618519100560576, -5.7516519869382 ], [ 106.618519100432451, -5.75165198723998 ], [ 106.618515256871504, -5.751661040680763 ], [ 106.618510123403638, -5.751670098081499 ], [ 106.618510123275172, -5.751670098262712 ], [ 106.618503700133019, -5.751679159140459 ], [ 106.618501133335101, -5.751683688067059 ], [ 106.618499139788327, -5.751688214915653 ], [ 106.618497159024997, -5.751697263374478 ], [ 106.618496683194337, -5.751706307564919 ], [ 106.618496207183128, -5.751715351755872 ], [ 106.618494799672249, -5.751724398588816 ], [ 106.618493374031132, -5.751733445473191 ], [ 106.618492258440497, -5.751737970509914 ], [ 106.618490981677269, -5.751742495099436 ], [ 106.618489287357875, -5.751751542745871 ], [ 106.618485099446062, -5.75176059746483 ], [ 106.618483306847693, -5.751765124421746 ], [ 106.618481815105582, -5.75176964962102 ], [ 106.618479476068273, -5.751778699096078 ], [ 106.618474342620701, -5.751787756496851 ], [ 106.618474342470748, -5.751787756678126 ], [ 106.618465339925734, -5.751796824871817 ], [ 106.618465339745683, -5.751796825053176 ], [ 106.618457841543645, -5.751805888980114 ], [ 106.618456345540579, -5.751808907120179 ], [ 106.618452751131116, -5.751814946258789 ], [ 106.618449165242311, -5.751823999270268 ], [ 106.618447385575465, -5.751833047158873 ], [ 106.618447385425853, -5.751833047460712 ], [ 106.618443541863215, -5.751842100901619 ], [ 106.61843991278819, -5.751851154035608 ], [ 106.618438421048211, -5.75185568013924 ], [ 106.618435424781694, -5.751860209605735 ], [ 106.61842941576424, -5.751863843923126 ], [ 106.618420395506405, -5.751866711333955 ], [ 106.618414383566844, -5.751869312124373 ], [ 106.618411377713983, -5.751870450843027 ], [ 106.618402355813316, -5.751872737248966 ], [ 106.618393334977952, -5.751875400510682 ], [ 106.618384306685599, -5.751875426116379 ], [ 106.618375276688553, -5.751874848742906 ], [ 106.61836624903539, -5.75187510047144 ], [ 106.618357230630295, -5.7518785170603 ], [ 106.618357230329863, -5.751878517242003 ], [ 106.618349732125012, -5.751887581168274 ], [ 106.618348233991313, -5.751889845911877 ], [ 106.618339225173088, -5.751896653808431 ], [ 106.618339224872429, -5.751896653909756 ], [ 106.618330198709202, -5.751897432858523 ], [ 106.618321170609917, -5.751897526974891 ], [ 106.618312149289252, -5.751900018960354 ], [ 106.618303137392644, -5.751905798996961 ], [ 106.618303137263922, -5.751905799087758 ], [ 106.61829412756228, -5.751912401275185 ], [ 106.618291426114652, -5.751914875052035 ], [ 106.61828512860869, -5.751922805560001 ], [ 106.618284487030962, -5.751923937573036 ], [ 106.618280342215741, -5.751932992169471 ], [ 106.618276154711651, -5.751942046886976 ], [ 106.618276154636789, -5.751942047016361 ], [ 106.618269158235677, -5.751951109570705 ], [ 106.618267159209552, -5.751953698979405 ], [ 106.61826216183475, -5.751960172254193 ], [ 106.618258163782343, -5.751965351071578 ], [ 106.618255917735681, -5.751969232804147 ], [ 106.618255190869093, -5.751978277707365 ], [ 106.618255763715396, -5.751987318924624 ], [ 106.618256609890281, -5.751996359366715 ], [ 106.618257274016287, -5.752005400325086 ], [ 106.618257299579525, -5.752014443094413 ], [ 106.618257425424872, -5.752023485579336 ], [ 106.618258340897015, -5.752028003951793 ], [ 106.618259356653823, -5.75203252294417 ], [ 106.618260385573748, -5.752041562867941 ], [ 106.618260984390076, -5.752050604011483 ], [ 106.618258430550753, -5.75205965409603 ], [ 106.618258430371469, -5.75205965454862 ], [ 106.618254844477519, -5.752068707108021 ], [ 106.618253064657296, -5.752077754997449 ], [ 106.618251284148243, -5.752086802888837 ], [ 106.618249491547502, -5.752091329845777 ], [ 106.618247247469128, -5.752095857178785 ], [ 106.618240495204631, -5.752102658675324 ], [ 106.618238696211066, -5.752104924272143 ], [ 106.618234508293753, -5.752113978990998 ], [ 106.618231524575251, -5.752123030294741 ], [ 106.618231524426079, -5.752123030747248 ], [ 106.618228540555776, -5.752132081599346 ], [ 106.618225556686696, -5.752141132903535 ], [ 106.618222572998121, -5.752150184207219 ], [ 106.618222572818837, -5.752150184659809 ], [ 106.618219588948364, -5.752159235511933 ], [ 106.618219614511688, -5.75216827828138 ], [ 106.618218135509224, -5.752177325317788 ], [ 106.618215452157187, -5.75218637576975 ], [ 106.618213655293147, -5.75218939476302 ], [ 106.618204644489623, -5.752195449262292 ], [ 106.618204644040816, -5.752195450167815 ], [ 106.618202864217366, -5.75220449715314 ], [ 106.618201083707632, -5.752213545044667 ], [ 106.618197497813682, -5.752222598056266 ], [ 106.618195698819648, -5.752224863653094 ], [ 106.618188946553289, -5.752231665149595 ], [ 106.61818669821379, -5.752234685423232 ], [ 106.618183705823967, -5.752240722854279 ], [ 106.618181323978405, -5.752249772451228 ], [ 106.618177729564081, -5.752255811589608 ], [ 106.618175481224455, -5.752258831863242 ], [ 106.618168725122047, -5.752264276590632 ], [ 106.618159707499444, -5.752267919439081 ], [ 106.618159707048505, -5.752267919591057 ], [ 106.618150686052331, -5.752270528762998 ], [ 106.618141660034681, -5.752271361632465 ], [ 106.618132633510527, -5.752272015345135 ], [ 106.618123603435208, -5.752271412839268 ], [ 106.618114580157084, -5.75227321489553 ], [ 106.618105558552173, -5.752275608893931 ], [ 106.618102553761332, -5.752277124363841 ], [ 106.618096551554345, -5.752283170330138 ], [ 106.618093551023208, -5.752286192736695 ], [ 106.618087544555294, -5.752290731417371 ], [ 106.61808304341109, -5.752295265377052 ], [ 106.618078541816701, -5.752299799790112 ], [ 106.618074040672354, -5.752304333749761 ], [ 106.618069536521432, -5.752307963797707 ], [ 106.618060523858233, -5.752313414923433 ], [ 106.618060523557716, -5.752313415074985 ], [ 106.618051508037638, -5.752317962062453 ], [ 106.618044749376949, -5.752322502499142 ], [ 106.618042498906675, -5.75232476937602 ], [ 106.618035746637133, -5.752331570871529 ], [ 106.618033498296413, -5.75233459114489 ], [ 106.618029001413319, -5.752340632842088 ], [ 106.618024512823723, -5.752349688413369 ], [ 106.618024512599305, -5.752349688866088 ], [ 106.618020926700723, -5.75235874142548 ], [ 106.618019146876975, -5.752367789315384 ], [ 106.618015548199637, -5.752372321167782 ], [ 106.618006533128934, -5.75237686792754 ], [ 106.618006532677938, -5.752376868057991 ], [ 106.61799750437595, -5.752376893659794 ], [ 106.617997503472793, -5.752376893533182 ], [ 106.617988472878935, -5.752375788947678 ], [ 106.61798396237397, -5.752376931931779 ], [ 106.617979456290556, -5.752379958607319 ], [ 106.617975861873333, -5.75238599774523 ], [ 106.617970464200639, -5.752392795399154 ], [ 106.617967461538683, -5.752395064408866 ], [ 106.617961449590837, -5.752397665196603 ], [ 106.617952429960482, -5.752400758864153 ], [ 106.617943411543649, -5.752404175449433 ], [ 106.617943411243147, -5.752404175600986 ], [ 106.617934404240486, -5.752411736885072 ], [ 106.617933118953232, -5.752413247478533 ], [ 106.617926695303581, -5.752422308536712 ], [ 106.617925414275717, -5.752425326066965 ], [ 106.617923174240914, -5.752431361364259 ], [ 106.617919437880161, -5.752440414802315 ], [ 106.617916443908726, -5.752445848859983 ], [ 106.617914447800857, -5.752449471795433 ], [ 106.617907451502049, -5.752458534477391 ], [ 106.617907451389485, -5.752458534578182 ], [ 106.617898438421221, -5.752463985740782 ], [ 106.617889413370719, -5.752465162353412 ], [ 106.617880383517445, -5.752464639792986 ], [ 106.617871352115671, -5.752463569385273 ], [ 106.617862325205593, -5.752464088141844 ], [ 106.617853303474462, -5.752466439236919 ], [ 106.617848793424528, -5.752467743648782 ], [ 106.617844287339537, -5.752470770323645 ], [ 106.617835276526876, -5.752476824819368 ], [ 106.617835276076022, -5.752476825001495 ], [ 106.617826247771603, -5.752476850570885 ], [ 106.617817219467128, -5.752476876132618 ], [ 106.617817218563999, -5.75247687602214 ], [ 106.617808188323067, -5.752475897036826 ], [ 106.61779916001862, -5.752475922635929 ], [ 106.617790129441858, -5.752475144262659 ], [ 106.617781099859457, -5.752474717722902 ], [ 106.617772074293825, -5.752475712401126 ], [ 106.617763050542507, -5.752477029610391 ], [ 106.617763049640033, -5.752477029725987 ], [ 106.617754024529262, -5.752478185396079 ], [ 106.617744999419642, -5.752479341502467 ], [ 106.61773597202783, -5.752479690127117 ], [ 106.617726943723, -5.752479715725096 ], [ 106.617717914504581, -5.752479418080787 ], [ 106.617708879812412, -5.752477183653263 ], [ 106.61769985150751, -5.752477209250801 ], [ 106.617699850603429, -5.752477208801281 ], [ 106.617690814683584, -5.75247422052218 ], [ 106.61768178637864, -5.752474246119419 ], [ 106.617672753814503, -5.752472764656746 ], [ 106.617668226431292, -5.752468255618443 ], [ 106.617663706341915, -5.752466007938262 ], [ 106.617654667387058, -5.752462265114503 ], [ 106.617645636952986, -5.752461537314479 ], [ 106.617636615038165, -5.752463824045611 ], [ 106.617634621482722, -5.75246835089375 ], [ 106.617632120761314, -5.752470869842246 ], [ 106.617631123274151, -5.752472882233826 ] ] ] } }
]
}
